admin0Name_en,admin0Name_ar,admin0Pcode,admin1Name_en,admin1Name_ar,admin1Pcode,admin2Name_en,admin2Name_ar,admin2Pcode,admin3Name_en,admin3Name_ar,admin3Pcode,admin4Name_en,admin4Name_ar,admin4Pcode,areaName_en,areaName_ar,areaPcode,neibourhoodName_en,neibourhoodName_ar,neibourhoodPcode,neibourhoodRefName_en,neibourhoodRefName_ar,neibourhoodAltName1_en,neibourhoodAltName1_ar,neibourhoodAltName2_en,neibourhoodAltName2_ar,LastUpdateDate,validOn,validTo,neibourhoodPreviuosPcode
Syrian Arab Republic,الجمهورية العربية السورية,SY,Damascus,دمشق,SY01,Damascus,دمشق,SY0100,Damascus,دمشق,SY010000,Damascus,دمشق,C1001,Rukn Eddine,ركن الدين,A002,Asad Addein,أسد الدين,N0006,Asad Addein,أسد الدين,,,,,2016-09-05,,,SY0100011
Syrian Arab Republic,الجمهورية العربية السورية,SY,Damascus,دمشق,SY01,Damascus,دمشق,SY0100,Damascus,دمشق,SY010000,Damascus,دمشق,C1001,Rukn Eddine,ركن الدين,A002,Naqshabandi,النقشبندي,N0009,Naqshabandi,النقشبندي,,,,,2016-09-05,,,SY0100012
Syrian Arab Republic,الجمهورية العربية السورية,SY,Damascus,دمشق,SY01,Damascus,دمشق,SY0100,Damascus,دمشق,SY010000,Damascus,دمشق,C1001,Rukn Eddine,ركن الدين,A002,Al Fayhaa,الفيحاء,N0016,Al Fayhaa (Damascus),الفيحاء - دمشق,,,,,2016-09-05,,,SY0100013
Syrian Arab Republic,الجمهورية العربية السورية,SY,Damascus,دمشق,SY01,Damascus,دمشق,SY0100,Damascus,دمشق,SY010000,Damascus,دمشق,C1001,Rukn Eddine,ركن الدين,A002,Ayoubiya,الأيوبية,N0013,Ayoubiya,الأيوبية,,,,,2016-09-05,,,SY0100014
Syrian Arab Republic,الجمهورية العربية السورية,SY,Damascus,دمشق,SY01,Damascus,دمشق,SY0100,Damascus,دمشق,SY010000,Damascus,دمشق,C1001,Muhajerin,المهاجرين,A006,Haboubi,الحبوبي,N0037,Haboubi,الحبوبي,,,,,2016-09-05,,,SY0100021
Syrian Arab Republic,الجمهورية العربية السورية,SY,Damascus,دمشق,SY01,Damascus,دمشق,SY0100,Damascus,دمشق,SY010000,Damascus,دمشق,C1001,Muhajerin,المهاجرين,A006,Rawda,الروضة,N0031,Rawda,الروضة,,,,,2016-09-05,,,SY0100022
Syrian Arab Republic,الجمهورية العربية السورية,SY,Damascus,دمشق,SY01,Damascus,دمشق,SY0100,Damascus,دمشق,SY010000,Damascus,دمشق,C1001,Muhajerin,المهاجرين,A006,Shoura,شورى,N0022,Shoura,شورى,,,,,2016-09-05,,,SY0100023
Syrian Arab Republic,الجمهورية العربية السورية,SY,Damascus,دمشق,SY01,Damascus,دمشق,SY0100,Damascus,دمشق,SY010000,Damascus,دمشق,C1001,Muhajerin,المهاجرين,A006,Mastaba,المصطبة,N0023,Mastaba,المصطبة,,,,,2016-09-05,,,SY0100024
Syrian Arab Republic,الجمهورية العربية السورية,SY,Damascus,دمشق,SY01,Damascus,دمشق,SY0100,Damascus,دمشق,SY010000,Damascus,دمشق,C1001,Muhajerin,المهاجرين,A006,Al Marabit,المرابط,N0027,Al Marabit,المرابط,,,,,2016-09-05,,,SY0100025
Syrian Arab Republic,الجمهورية العربية السورية,SY,Damascus,دمشق,SY01,Damascus,دمشق,SY0100,Damascus,دمشق,SY010000,Damascus,دمشق,C1001,Muhajerin,المهاجرين,A006,Al Maliki,المالكي,N0036,Al Maliki,المالكي,,,,,2016-09-05,,,SY0100026
Syrian Arab Republic,الجمهورية العربية السورية,SY,Damascus,دمشق,SY01,Damascus,دمشق,SY0100,Damascus,دمشق,SY010000,Damascus,دمشق,C1001,Muhajerin,المهاجرين,A006,Abou Rummaneh,أبو رمانة,N0035,Abou Rummaneh,أبو رمانة,,,,,2016-09-05,,,SY0100027
Syrian Arab Republic,الجمهورية العربية السورية,SY,Damascus,دمشق,SY01,Damascus,دمشق,SY0100,Damascus,دمشق,SY010000,Damascus,دمشق,C1001,Mazzeh,المزة,A009,Rabwa,الربوة,N0047,Rabwa,الربوة,,,,,2016-09-05,,,SY0100031
Syrian Arab Republic,الجمهورية العربية السورية,SY,Damascus,دمشق,SY01,Damascus,دمشق,SY0100,Damascus,دمشق,SY010000,Damascus,دمشق,C1001,Mazzeh,المزة,A009,Mazzeh 86,مزة 86,N0053,Mazzeh 86,مزة 86,,,,,2016-09-05,,,SY0100032
Syrian Arab Republic,الجمهورية العربية السورية,SY,Damascus,دمشق,SY01,Damascus,دمشق,SY0100,Damascus,دمشق,SY010000,Damascus,دمشق,C1001,Mazzeh,المزة,A009,Fealat Sharqiyeh,فيلات شرقية,N0086,Fealat Sharqiyeh,فيلات شرقية,,,,,2016-09-05,,,SY0100033
Syrian Arab Republic,الجمهورية العربية السورية,SY,Damascus,دمشق,SY01,Damascus,دمشق,SY0100,Damascus,دمشق,SY010000,Damascus,دمشق,C1001,Mazzeh,المزة,A009,Mazzeh Al Qadimeh,المزة القديمة,N0056,Mazzeh Al Qadimeh,المزة القديمة,,,,,2016-09-05,,,SY0100034
Syrian Arab Republic,الجمهورية العربية السورية,SY,Damascus,دمشق,SY01,Damascus,دمشق,SY0100,Damascus,دمشق,SY010000,Damascus,دمشق,C1001,Mazzeh,المزة,A009,Jalaa,الجلاء,N0071,Jalaa (Damascus),الجلاء - دمشق,,,,,2016-09-05,,,SY0100035
Syrian Arab Republic,الجمهورية العربية السورية,SY,Damascus,دمشق,SY01,Damascus,دمشق,SY0100,Damascus,دمشق,SY010000,Damascus,دمشق,C1001,Mazzeh,المزة,A009,Mazzej Jabal,مزة جبل,N0064,Mazzej Jabal,مزة جبل,,,,,2016-09-05,,,SY0100036
Syrian Arab Republic,الجمهورية العربية السورية,SY,Damascus,دمشق,SY01,Damascus,دمشق,SY0100,Damascus,دمشق,SY010000,Damascus,دمشق,C1001,Mazzeh,المزة,A009,Fealat Gharbiyeh,فيلات غربية,N0076,Fealat Gharbiyeh,فيلات غربية,,,,,2016-09-05,,,SY0100037
Syrian Arab Republic,الجمهورية العربية السورية,SY,Damascus,دمشق,SY01,Damascus,دمشق,SY0100,Damascus,دمشق,SY010000,Damascus,دمشق,C1001,Mazzeh,المزة,A009,Soumariyyeh,السومرية,N0088,Soumariyyeh,السومرية,,,,,2016-09-05,,,SY0100038
Syrian Arab Republic,الجمهورية العربية السورية,SY,Damascus,دمشق,SY01,Damascus,دمشق,SY0100,Damascus,دمشق,SY010000,Damascus,دمشق,C1001,Burza,برزة,A003,Masakin Barza,مساكن برزة,N0008,Masakin Barza,مساكن برزة,,,,,2016-09-05,,,SY0100041
Syrian Arab Republic,الجمهورية العربية السورية,SY,Damascus,دمشق,SY01,Damascus,دمشق,SY0100,Damascus,دمشق,SY010000,Damascus,دمشق,C1001,Burza,برزة,A003,Al Abbas,العباس,N0005,Al Abbas,العباس,,,,,2016-09-05,,,SY0100042
Syrian Arab Republic,الجمهورية العربية السورية,SY,Damascus,دمشق,SY01,Damascus,دمشق,SY0100,Damascus,دمشق,SY010000,Damascus,دمشق,C1001,Burza,برزة,A003,Al Manara,المنارة,N0003,Al Manara,المنارة,,,,,2016-09-05,,,SY0100043
Syrian Arab Republic,الجمهورية العربية السورية,SY,Damascus,دمشق,SY01,Damascus,دمشق,SY0100,Damascus,دمشق,SY010000,Damascus,دمشق,C1001,Burza,برزة,A003,Barza Al Balad,برزة البلد,N0002,Barza Al Balad,برزة البلد,,,,,2016-09-05,,,SY0100044
Syrian Arab Republic,الجمهورية العربية السورية,SY,Damascus,دمشق,SY01,Damascus,دمشق,SY0100,Damascus,دمشق,SY010000,Damascus,دمشق,C1001,Burza,برزة,A003,Al Hurriya_ Ish Al Werwer,الحرية_ عش الورور,N0001,Al Hurriya _Ish Al Werwer,الحرية_ عش الورور,,,,,2016-09-05,,,SY0100045
Syrian Arab Republic,الجمهورية العربية السورية,SY,Damascus,دمشق,SY01,Damascus,دمشق,SY0100,Damascus,دمشق,SY010000,Damascus,دمشق,C1001,Burza,برزة,A003,Nuzha,النزهة,N0015,Nuzha (Damascus),النزهة - دمشق,,,,,2016-09-05,,,SY0100046
Syrian Arab Republic,الجمهورية العربية السورية,SY,Damascus,دمشق,SY01,Damascus,دمشق,SY0100,Damascus,دمشق,SY010000,Damascus,دمشق,C1001,Jowbar,جوبر,A008,Ma'amouniyyeh,المأمونية,N0032,Maamouniyyeh,المأمونية,,,,,2016-09-05,,,SY0100051
Syrian Arab Republic,الجمهورية العربية السورية,SY,Damascus,دمشق,SY01,Damascus,دمشق,SY0100,Damascus,دمشق,SY010000,Damascus,دمشق,C1001,Jowbar,جوبر,A008,Al Istiqlal,الاستقلال,N0051,Al Istiqlal,الاستقلال - دمشق,,,,,2016-09-05,,,SY0100054
Syrian Arab Republic,الجمهورية العربية السورية,SY,Damascus,دمشق,SY01,Damascus,دمشق,SY0100,Damascus,دمشق,SY010000,Damascus,دمشق,C1001,Saroujah,ساروجا,A007,Saroujah,ساروجا,N0040,Saroujah,ساروجا,,,,,2016-09-05,,,SY0100061
Syrian Arab Republic,الجمهورية العربية السورية,SY,Damascus,دمشق,SY01,Damascus,دمشق,SY0100,Damascus,دمشق,SY010000,Damascus,دمشق,C1001,Saroujah,ساروجا,A007,Oqaiba,العقيبة,N0039,Oqaiba,العقيبة,,,,,2016-09-05,,,SY0100062
Syrian Arab Republic,الجمهورية العربية السورية,SY,Damascus,دمشق,SY01,Damascus,دمشق,SY0100,Damascus,دمشق,SY010000,Damascus,دمشق,C1001,Saroujah,ساروجا,A007,Al 'Adwi,العدوي,N0029,Al Adwi,العدوي,,,,,2016-09-05,,,SY0100063
Syrian Arab Republic,الجمهورية العربية السورية,SY,Damascus,دمشق,SY01,Damascus,دمشق,SY0100,Damascus,دمشق,SY010000,Damascus,دمشق,C1001,Saroujah,ساروجا,A007,Masjid Aqsab,مسجد أقصاب,N0038,Masjid Aqsab,مسجد أقصاب,,,,,2016-09-05,,,SY0100064
Syrian Arab Republic,الجمهورية العربية السورية,SY,Damascus,دمشق,SY01,Damascus,دمشق,SY0100,Damascus,دمشق,SY010000,Damascus,دمشق,C1001,Saroujah,ساروجا,A007,Al Qusa',القصاع,N0034,Al Qusa,القصاع,,,,,2016-09-05,,,SY0100065
Syrian Arab Republic,الجمهورية العربية السورية,SY,Damascus,دمشق,SY01,Damascus,دمشق,SY0100,Damascus,دمشق,SY010000,Yarmuk,اليرموك,C1002,El Faloujeh,الفالوجة,,El Faloujeh,الفالوجة,N0111,El Faloujeh,الفالوجة,,,,,2016-09-05,,,SY01010101
Syrian Arab Republic,الجمهورية العربية السورية,SY,Damascus,دمشق,SY01,Damascus,دمشق,SY0100,Damascus,دمشق,SY010000,Yarmuk,اليرموك,C1002,El Kermel,الكرمل,,El Kermel,الكرمل,N0109,El Kermel,الكرمل,,,,,2016-09-05,,,SY01010101
Syrian Arab Republic,الجمهورية العربية السورية,SY,Damascus,دمشق,SY01,Damascus,دمشق,SY0100,Damascus,دمشق,SY010000,Damascus,دمشق,C1001,Saroujah,ساروجا,A007,Al Qusur,القصور,N0026,Al Qusur,القصور - دمشق,,,,,2016-09-05,,,SY0100066
Syrian Arab Republic,الجمهورية العربية السورية,SY,Damascus,دمشق,SY01,Damascus,دمشق,SY0100,Damascus,دمشق,SY010000,Damascus,دمشق,C1001,Saroujah,ساروجا,A007,Faris Al Khouri,فارس الخوري,N0018,Faris Al Khouri,فارس الخوري,,,,,2016-09-05,,,SY0100067
Syrian Arab Republic,الجمهورية العربية السورية,SY,Damascus,دمشق,SY01,Damascus,دمشق,SY0100,Damascus,دمشق,SY010000,Damascus,دمشق,C1001,Saroujah,ساروجا,A007,Amara Baraniyyeh,العمارة البرانية,N0041,Amara Baraniyyeh,العمارة البرانية,,,,,2016-09-05,,,SY0100068
Syrian Arab Republic,الجمهورية العربية السورية,SY,Damascus,دمشق,SY01,Damascus,دمشق,SY0100,Damascus,دمشق,SY010000,Damascus,دمشق,C1001,Old Damascus,دمشق القديمة,A011,Hariqa,الحريقة,N0050,Hariqa,الحريقة,,,,,2016-09-05,,,SY0100071
Syrian Arab Republic,الجمهورية العربية السورية,SY,Damascus,دمشق,SY01,Damascus,دمشق,SY0100,Damascus,دمشق,SY010000,Damascus,دمشق,C1001,Old Damascus,دمشق القديمة,A011,Shaghour Jowani,شاغور جواني,N0054,Shaghour Jowani,شاغور جواني,,,,,2016-09-05,,,SY0100072
Syrian Arab Republic,الجمهورية العربية السورية,SY,Damascus,دمشق,SY01,Damascus,دمشق,SY0100,Damascus,دمشق,SY010000,Damascus,دمشق,C1001,Old Damascus,دمشق القديمة,A011,Hameidiyyeh,الحميدية,N0045,Hameidiyyeh (Damascus),الحميدية - دمشق,,,,,2016-09-05,,,SY0100073
Syrian Arab Republic,الجمهورية العربية السورية,SY,Damascus,دمشق,SY01,Damascus,دمشق,SY0100,Damascus,دمشق,SY010000,Damascus,دمشق,C1001,Old Damascus,دمشق القديمة,A011,Ma'azanet Ash Shahm,مأذنة الشحم,N0055,Maazanet Ash Shahm,مأذنة الشحم,,,,,2016-09-05,,,SY0100074
Syrian Arab Republic,الجمهورية العربية السورية,SY,Damascus,دمشق,SY01,Damascus,دمشق,SY0100,Damascus,دمشق,SY010000,Damascus,دمشق,C1001,Old Damascus,دمشق القديمة,A011,Amin,الأمين,N0057,Amin (Damascus),الأمين - دمشق,,,,,2016-09-05,,,SY0100075
Syrian Arab Republic,الجمهورية العربية السورية,SY,Damascus,دمشق,SY01,Damascus,دمشق,SY0100,Damascus,دمشق,SY010000,Damascus,دمشق,C1001,Old Damascus,دمشق القديمة,A011,Bab Touma,باب توما,N0049,Bab Touma,باب توما,,,,,2016-09-05,,,SY0100076
Syrian Arab Republic,الجمهورية العربية السورية,SY,Damascus,دمشق,SY01,Damascus,دمشق,SY0100,Damascus,دمشق,SY010000,Damascus,دمشق,C1001,Old Damascus,دمشق القديمة,A011,Joura,الجورة,N0042,Joura,الجورة,,,,,2016-09-05,,,SY0100077
Syrian Arab Republic,الجمهورية العربية السورية,SY,Damascus,دمشق,SY01,Damascus,دمشق,SY0100,Damascus,دمشق,SY010000,Damascus,دمشق,C1001,Old Damascus,دمشق القديمة,A011,Al Qeimariyyeh,القيمرية,N0048,Al Qeimariyyeh,القيمرية,,,,,2016-09-05,,,SY0100078
Syrian Arab Republic,الجمهورية العربية السورية,SY,Damascus,دمشق,SY01,Damascus,دمشق,SY0100,Damascus,دمشق,SY010000,Damascus,دمشق,C1001,Old Damascus,دمشق القديمة,A011,Amara Jowaniyyeh,العمارة الجوانية,N0043,Amara Jowaniyyeh,العمارة الجوانية,,,,,2016-09-05,,,SY0100079
Syrian Arab Republic,الجمهورية العربية السورية,SY,Damascus,دمشق,SY01,Damascus,دمشق,SY0100,Damascus,دمشق,SY010000,Damascus,دمشق,C1001,Al Qanawat,القنوات,A010,Bab Sreijeh,باب سريجة,N0059,Bab Sreijeh,باب سريجة,,,,,2016-09-05,,,SY0100081
Syrian Arab Republic,الجمهورية العربية السورية,SY,Damascus,دمشق,SY01,Damascus,دمشق,SY0100,Damascus,دمشق,SY010000,Damascus,دمشق,C1001,Al Qanawat,القنوات,A010,Al Qanawat,القنوات,N0052,Al Qanawat,القنوات,,,,,2016-09-05,,,SY0100082
Syrian Arab Republic,الجمهورية العربية السورية,SY,Damascus,دمشق,SY01,Damascus,دمشق,SY0100,Damascus,دمشق,SY010000,Damascus,دمشق,C1001,Al Qanawat,القنوات,A010,Bab Al Jabiyeh,باب الجابية,N0060,Bab Al Jabiyeh,باب الجابية,,,,,2016-09-05,,,SY0100083
Syrian Arab Republic,الجمهورية العربية السورية,SY,Damascus,دمشق,SY01,Damascus,دمشق,SY0100,Damascus,دمشق,SY010000,Damascus,دمشق,C1001,Al Qanawat,القنوات,A010,Suweiqa,السويقة,N0066,Suweiqa,السويقة,,,,,2016-09-05,,,SY0100084
Syrian Arab Republic,الجمهورية العربية السورية,SY,Damascus,دمشق,SY01,Damascus,دمشق,SY0100,Damascus,دمشق,SY010000,Damascus,دمشق,C1001,Al Qanawat,القنوات,A010,Al Moujtahed,المجتهد,N0069,Al Moujtahed,المجتهد,,,,,2016-09-05,,,SY0100085
Syrian Arab Republic,الجمهورية العربية السورية,SY,Damascus,دمشق,SY01,Damascus,دمشق,SY0100,Damascus,دمشق,SY010000,Damascus,دمشق,C1001,Al Qanawat,القنوات,A010,Qabr Atikah,قبر عاتكة,N0065,Qabr Atikah,قبر عاتكة,,,,,2016-09-05,,,SY0100086
Syrian Arab Republic,الجمهورية العربية السورية,SY,Damascus,دمشق,SY01,Damascus,دمشق,SY0100,Damascus,دمشق,SY010000,Damascus,دمشق,C1001,Al Qanawat,القنوات,A010,Ansari,الأنصاري,N0062,Ansari,الأنصاري - دمشق,,,,,2016-09-05,,,SY0100087
Syrian Arab Republic,الجمهورية العربية السورية,SY,Damascus,دمشق,SY01,Damascus,دمشق,SY0100,Damascus,دمشق,SY010000,Damascus,دمشق,C1001,Al Qanawat,القنوات,A010,Baramkeh,البرامكة,N0058,Baramkeh,البرامكة,,,,,2016-09-05,,,SY0100088
Syrian Arab Republic,الجمهورية العربية السورية,SY,Damascus,دمشق,SY01,Damascus,دمشق,SY0100,Damascus,دمشق,SY010000,Damascus,دمشق,C1001,Al Qanawat,القنوات,A010,Hijaz,الحجاز,N0046,Hijaz (Damascus),الحجاز,,,,,2016-09-05,,,SY0100089
Syrian Arab Republic,الجمهورية العربية السورية,SY,Damascus,دمشق,SY01,Damascus,دمشق,SY0100,Damascus,دمشق,SY010000,Damascus,دمشق,C1001,Midan,الميدان,A013,Zahreh,الزاهرة,N0080,Zahreh,الزاهرة,,,,,2016-09-05,,,SY0100091
Syrian Arab Republic,الجمهورية العربية السورية,SY,Damascus,دمشق,SY01,Damascus,دمشق,SY0100,Damascus,دمشق,SY010000,Damascus,دمشق,C1001,Midan,الميدان,A013,Qa'a,القاعة,N0089,Qaa,القاعة,,,,,2016-09-05,,,SY0100092
Syrian Arab Republic,الجمهورية العربية السورية,SY,Damascus,دمشق,SY01,Damascus,دمشق,SY0100,Damascus,دمشق,SY010000,Damascus,دمشق,C1001,Midan,الميدان,A013,Daqaq,الدقاق,N0084,Daqaq,الدقاق,,,,,2016-09-05,,,SY0100093
Syrian Arab Republic,الجمهورية العربية السورية,SY,Damascus,دمشق,SY01,Damascus,دمشق,SY0100,Damascus,دمشق,SY010000,Damascus,دمشق,C1001,Midan,الميدان,A013,Haqleh,الحقلة,N0081,Haqleh,الحقلة,,,,,2016-09-05,,,SY0100094
Syrian Arab Republic,الجمهورية العربية السورية,SY,Damascus,دمشق,SY01,Damascus,دمشق,SY0100,Damascus,دمشق,SY010000,Damascus,دمشق,C1001,Midan,الميدان,A013,Bab Maser,باب مصر,N0082,Bab Maser,باب مصر,,,,,2016-09-05,,,SY0100095
Syrian Arab Republic,الجمهورية العربية السورية,SY,Damascus,دمشق,SY01,Damascus,دمشق,SY0100,Damascus,دمشق,SY010000,Damascus,دمشق,C1001,Midan,الميدان,A013,Midan Wastani,ميدان وسطاني,N0078,Midan Wastani,ميدان وسطاني,,,,,2016-09-05,,,SY0100096
Syrian Arab Republic,الجمهورية العربية السورية,SY,Damascus,دمشق,SY01,Damascus,دمشق,SY0100,Damascus,دمشق,SY010000,Damascus,دمشق,C1001,Ash Shaghour,الشاغور,A014,Shaghour Barani,شاغور براني,N0063,Shaghour Barani,شاغور براني,,,,,2016-09-05,,,SY0100101
Syrian Arab Republic,الجمهورية العربية السورية,SY,Damascus,دمشق,SY01,Damascus,دمشق,SY0100,Damascus,دمشق,SY010000,Damascus,دمشق,C1001,Ash Shaghour,الشاغور,A014,Ibn Asaker,ابن عساكر,N0067,Ibn Asaker,ابن عساكر,,,,,2016-09-05,,,SY0100102
Syrian Arab Republic,الجمهورية العربية السورية,SY,Damascus,دمشق,SY01,Damascus,دمشق,SY0100,Damascus,دمشق,SY010000,Damascus,دمشق,C1001,Ash Shaghour,الشاغور,A014,Bilal,بلال,N0075,Bilal,بلال,,,,,2016-09-05,,,SY0100103
Syrian Arab Republic,الجمهورية العربية السورية,SY,Damascus,دمشق,SY01,Damascus,دمشق,SY0100,Damascus,دمشق,SY010000,Damascus,دمشق,C1001,Ash Shaghour,الشاغور,A014,Rawdet Al Midan,روضة الميدان,N0079,Rawdet Al Midan,روضة الميدان,,,,,2016-09-05,,,SY0100104
Syrian Arab Republic,الجمهورية العربية السورية,SY,Damascus,دمشق,SY01,Damascus,دمشق,SY0100,Damascus,دمشق,SY010000,Damascus,دمشق,C1001,Ash Shaghour,الشاغور,A014,Zohour,الزهور,N0083,Zohour (Damascus),الزهور - دمشق,,,,,2016-09-05,,,SY0100105
Syrian Arab Republic,الجمهورية العربية السورية,SY,Damascus,دمشق,SY01,Damascus,دمشق,SY0100,Damascus,دمشق,SY010000,Damascus,دمشق,C1001,Ash Shaghour,الشاغور,A014,Nidal,النضال,N0068,Nidal,النضال,,,,,2016-09-05,,,SY0100106
Syrian Arab Republic,الجمهورية العربية السورية,SY,Damascus,دمشق,SY01,Damascus,دمشق,SY0100,Damascus,دمشق,SY010000,Damascus,دمشق,C1001,Ash Shaghour,الشاغور,A014,Bab Sharqi,باب شرقي,N0061,Bab Sharqi,باب شرقي,,,,,2016-09-05,,,SY0100107
Syrian Arab Republic,الجمهورية العربية السورية,SY,Damascus,دمشق,SY01,Damascus,دمشق,SY0100,Damascus,دمشق,SY010000,Damascus,دمشق,C1001,Ash Shaghour,الشاغور,A014,Wihdeh,الوحدة,N0074,Wihdeh (Damascus),الوحدة - دمشق,,,,,2016-09-05,,,SY0100108
Syrian Arab Republic,الجمهورية العربية السورية,SY,Damascus,دمشق,SY01,Damascus,دمشق,SY0100,Damascus,دمشق,SY010000,Damascus,دمشق,C1001,Dummar,دمر,A001,Dummar Sharqiya,دمر الشرقية,N0010,Dummar Sharqiya,دمر الشرقية,,,,,2016-09-05,,,SY0100111
Syrian Arab Republic,الجمهورية العربية السورية,SY,Damascus,دمشق,SY01,Damascus,دمشق,SY0100,Damascus,دمشق,SY010000,Damascus,دمشق,C1001,Dummar,دمر,A001,Dummar Gharbiya,دمر الغربية,N0044,Dummar Gharbiya,دمر الغربية,,,,,2016-09-05,,,SY0100112
Syrian Arab Republic,الجمهورية العربية السورية,SY,Damascus,دمشق,SY01,Damascus,دمشق,SY0100,Damascus,دمشق,SY010000,Damascus,دمشق,C1001,Dummar,دمر,A001,Dahiet Dummar,ضاحية دمر,N0024,Dahiet Dummar,ضاحية دمر,,,,,2016-09-05,,,SY0100113
Syrian Arab Republic,الجمهورية العربية السورية,SY,Damascus,دمشق,SY01,Damascus,دمشق,SY0100,Damascus,دمشق,SY010000,Damascus,دمشق,C1001,Dummar,دمر,A001,Al Arin,العرين,N0020,Al Arin,العرين,,,,,2016-09-05,,,SY0100114
Syrian Arab Republic,الجمهورية العربية السورية,SY,Damascus,دمشق,SY01,Damascus,دمشق,SY0100,Damascus,دمشق,SY010000,Damascus,دمشق,C1001,Dummar,دمر,A001,Al Woroud,الورود,N0012,Al Woroud,الورود,,,,,2016-09-05,,,SY0100115
Syrian Arab Republic,الجمهورية العربية السورية,SY,Damascus,دمشق,SY01,Damascus,دمشق,SY0100,Damascus,دمشق,SY010000,Damascus,دمشق,C1001,Al Qadam,القدم,A015,Sayyida Aisha,السيدة عائشة,N0085,Sayyida Aisha,السيدة عائشة,,,,,2016-09-05,,,SY0100121
Syrian Arab Republic,الجمهورية العربية السورية,SY,Damascus,دمشق,SY01,Damascus,دمشق,SY0100,Damascus,دمشق,SY010000,Damascus,دمشق,C1001,Al Qadam,القدم,A015,Dahadeel,الدحاديل,N0091,Dahadeel,الدحاديل,,,,,2016-09-05,,,SY0100122
Syrian Arab Republic,الجمهورية العربية السورية,SY,Damascus,دمشق,SY01,Damascus,دمشق,SY0100,Damascus,دمشق,SY010000,Damascus,دمشق,C1001,Al Qadam,القدم,A015,Al Mustafa,المصطفى,N0095,Al Mustafa,المصطفى,,,,,2016-09-05,,,SY0100126
Syrian Arab Republic,الجمهورية العربية السورية,SY,Damascus,دمشق,SY01,Damascus,دمشق,SY0100,Damascus,دمشق,SY010000,Damascus,دمشق,C1001,Kafar Soussa,كفرسوسة,A012,Kafr Souseh Al Balad,كفر سوسة البلد,N0070,Kafr Souseh Al Balad,كفر سوسة البلد,,,,,2016-09-05,,,SY0100131
Syrian Arab Republic,الجمهورية العربية السورية,SY,Damascus,دمشق,SY01,Damascus,دمشق,SY0100,Damascus,دمشق,SY010000,Damascus,دمشق,C1001,Kafar Soussa,كفرسوسة,A012,Al Waha,الواحة,N0077,Al Waha,الواحة,,,,,2016-09-05,,,SY0100132
Syrian Arab Republic,الجمهورية العربية السورية,SY,Damascus,دمشق,SY01,Damascus,دمشق,SY0100,Damascus,دمشق,SY010000,Damascus,دمشق,C1001,Kafar Soussa,كفرسوسة,A012,Fardos,الفردوس,N0087,Fardos (Damascus),الفردوس - دمشق,,,,,2016-09-05,,,SY0100133
Syrian Arab Republic,الجمهورية العربية السورية,SY,Damascus,دمشق,SY01,Damascus,دمشق,SY0100,Damascus,دمشق,SY010000,Damascus,دمشق,C1001,Kafar Soussa,كفرسوسة,A012,Lwan,اللوان,N0090,Lwan,اللوان,,,,,2016-09-05,,,SY0100134
Syrian Arab Republic,الجمهورية العربية السورية,SY,Damascus,دمشق,SY01,Damascus,دمشق,SY0100,Damascus,دمشق,SY010000,Damascus,دمشق,C1001,Kafar Soussa,كفرسوسة,A012,Al Ikhlas,الإخلاص,N0072,Al Ikhlas,الإخلاص,,,,,2016-09-05,,,SY0100135
Syrian Arab Republic,الجمهورية العربية السورية,SY,Damascus,دمشق,SY01,Damascus,دمشق,SY0100,Damascus,دمشق,SY010000,Damascus,دمشق,C1001,Kafar Soussa,كفرسوسة,A012,Mazzeh Basatin,مزة بساتين,N0073,Mazzeh Basatin,مزة بساتين,,,,,2016-09-05,,,SY0100136
Syrian Arab Republic,الجمهورية العربية السورية,SY,Damascus,دمشق,SY01,Damascus,دمشق,SY0100,Damascus,دمشق,SY010000,Damascus,دمشق,C1001,Qaboun,القابون,A004,Al Masani',المصانع,N0011,Al Masani,المصانع,,,,,2016-09-05,,,SY0100141
Syrian Arab Republic,الجمهورية العربية السورية,SY,Damascus,دمشق,SY01,Damascus,دمشق,SY0100,Damascus,دمشق,SY010000,Damascus,دمشق,C1001,Qaboun,القابون,A004,Tishrine,تشرين,N0004,Tishrine (Damascus),تشرين - دمشق,,,,,2016-09-05,,,SY0100143
Syrian Arab Republic,الجمهورية العربية السورية,SY,Damascus,دمشق,SY01,Damascus,دمشق,SY0100,Damascus,دمشق,SY010000,Damascus,دمشق,C1001,Salhiyeh,الصالحية,A005,Al Mazra'a,المزرعة,N0028,Al Mazraa,المزرعة - دمشق,,,,,2016-09-05,,,SY0100151
Syrian Arab Republic,الجمهورية العربية السورية,SY,Damascus,دمشق,SY01,Damascus,دمشق,SY0100,Damascus,دمشق,SY010000,Damascus,دمشق,C1001,Salhiyeh,الصالحية,A005,Qasyoun,قاسيون,N0014,Qasyoun,قاسيون,,,,,2016-09-05,,,SY0100152
Syrian Arab Republic,الجمهورية العربية السورية,SY,Damascus,دمشق,SY01,Damascus,دمشق,SY0100,Damascus,دمشق,SY010000,Damascus,دمشق,C1001,Salhiyeh,الصالحية,A005,Abou Jarash,أبو جرش,N0017,Abou Jarash,أبو جرش,,,,,2016-09-05,,,SY0100153
Syrian Arab Republic,الجمهورية العربية السورية,SY,Damascus,دمشق,SY01,Damascus,دمشق,SY0100,Damascus,دمشق,SY010000,Damascus,دمشق,C1001,Salhiyeh,الصالحية,A005,Sheikh Muhie Addin,الشيخ محي الدين,N0019,Sheikh Muhie Addin,الشيخ محي الدين,,,,,2016-09-05,,,SY0100154
Syrian Arab Republic,الجمهورية العربية السورية,SY,Damascus,دمشق,SY01,Damascus,دمشق,SY0100,Damascus,دمشق,SY010000,Damascus,دمشق,C1001,Salhiyeh,الصالحية,A005,Al Madaris,المدارس,N0021,Al Madaris,المدارس,,,,,2016-09-05,,,SY0100155
Syrian Arab Republic,الجمهورية العربية السورية,SY,Damascus,دمشق,SY01,Damascus,دمشق,SY0100,Damascus,دمشق,SY010000,Damascus,دمشق,C1001,Salhiyeh,الصالحية,A005,Shuhada,الشهداء,N0033,Shuhada (Damascus),الشهداء - دمشق,,,,,2016-09-05,,,SY0100156
Syrian Arab Republic,الجمهورية العربية السورية,SY,Lattakia,اللاذقية,SY06,Lattakia,مركز اللاذقية,SY0600,Lattakia,مركز اللاذقية,SY060000,Lattakia,اللاذقية,C3480,<Null>,<Null>,<Null>,Oweina,العوينة,N0339,Oweina,العوينة,,,,,2016-09-05,,,SY0600012
Syrian Arab Republic,الجمهورية العربية السورية,SY,Lattakia,اللاذقية,SY06,Lattakia,مركز اللاذقية,SY0600,Lattakia,مركز اللاذقية,SY060000,Lattakia,اللاذقية,C3480,<Null>,<Null>,<Null>,Qalaa,القلعة,N0341,Qalaa,القلعة,,,,,2016-09-05,,,SY0600015
Syrian Arab Republic,الجمهورية العربية السورية,SY,Lattakia,اللاذقية,SY06,Lattakia,مركز اللاذقية,SY0600,Lattakia,مركز اللاذقية,SY060000,Lattakia,اللاذقية,C3480,<Null>,<Null>,<Null>,Jame'et Tishrine,جامعة تشرين,N0340,Jameet Tishrine,جامعة تشرين,,,,,2016-09-05,,,SY0600022
Syrian Arab Republic,الجمهورية العربية السورية,SY,Lattakia,اللاذقية,SY06,Lattakia,مركز اللاذقية,SY0600,Lattakia,مركز اللاذقية,SY060000,Lattakia,اللاذقية,C3480,<Null>,<Null>,<Null>,Al- Thawrah,الثورة,N0333,Al- Thawrah (Lattakia),الثورة - اللاذقية,,,,,2016-09-05,,,SY0600031
Syrian Arab Republic,الجمهورية العربية السورية,SY,Al-Hasakeh,الحسكة,SY08,Al-Hasakeh,مركز الحسكة,SY0800,Al-Hasakeh,مركز الحسكة,SY080000,Al-Hasakeh,الحسكة,C4360,<Null>,<Null>,<Null>,Khashman,خشمان,N0371,Khashman,خشمان,,,,,2016-09-05,,,SY0800022
Syrian Arab Republic,الجمهورية العربية السورية,SY,Al-Hasakeh,الحسكة,SY08,Al-Hasakeh,مركز الحسكة,SY0800,Al-Hasakeh,مركز الحسكة,SY080000,Al-Hasakeh,الحسكة,C4360,<Null>,<Null>,<Null>,Msheirfeh,مشيرفة,N0370,Msheirfeh,مشيرفة,,,,,2016-09-05,,,SY0800042
Syrian Arab Republic,الجمهورية العربية السورية,SY,Al-Hasakeh,الحسكة,SY08,Al-Hasakeh,مركز الحسكة,SY0800,Al-Hasakeh,مركز الحسكة,SY080000,Al-Hasakeh,الحسكة,C4360,<Null>,<Null>,<Null>,Al Mashtal,المشتل,N0372,Al Mashtal,المشتل,,,,,2016-09-05,,,SY0800047
Syrian Arab Republic,الجمهورية العربية السورية,SY,Al-Hasakeh,الحسكة,SY08,Al-Hasakeh,مركز الحسكة,SY0800,Al-Hasakeh,مركز الحسكة,SY080000,Al-Hasakeh,الحسكة,C4360,<Null>,<Null>,<Null>,M'eishiyeh,المعيشية,N0373,Meishiyeh,المعيشية,,,,,2016-09-05,,,SY0800045
Syrian Arab Republic,الجمهورية العربية السورية,SY,Al-Hasakeh,الحسكة,SY08,Al-Hasakeh,مركز الحسكة,SY0800,Al-Hasakeh,مركز الحسكة,SY080000,Al-Hasakeh,الحسكة,C4360,<Null>,<Null>,<Null>,Qosour,القصور,N0378,Qosour (Al-Hasakeh),القصور - الحسكة,,,,,2016-09-05,,,SY0800043
Syrian Arab Republic,الجمهورية العربية السورية,SY,Al-Hasakeh,الحسكة,SY08,Al-Hasakeh,مركز الحسكة,SY0800,Al-Hasakeh,مركز الحسكة,SY080000,Al-Hasakeh,الحسكة,C4360,<Null>,<Null>,<Null>,Baytara,البيطرة,N0375,Baytara,البيطرة,,,,,2016-09-05,,,SY0800046
Syrian Arab Republic,الجمهورية العربية السورية,SY,Al-Hasakeh,الحسكة,SY08,Al-Hasakeh,مركز الحسكة,SY0800,Al-Hasakeh,مركز الحسكة,SY080000,Al-Hasakeh,الحسكة,C4360,<Null>,<Null>,<Null>,Al Kallasa,الكلاسة,N0380,Al Kallasa,الكلاسة,,,,,2016-09-05,,,SY0800044
Syrian Arab Republic,الجمهورية العربية السورية,SY,Al-Hasakeh,الحسكة,SY08,Al-Hasakeh,مركز الحسكة,SY0800,Al-Hasakeh,مركز الحسكة,SY080000,Al-Hasakeh,الحسكة,C4360,<Null>,<Null>,<Null>,Tal Hajar,تل حجر,N0376,Tal Hajar,تل حجر,,,,,2016-09-05,,,SY0800041
Syrian Arab Republic,الجمهورية العربية السورية,SY,Al-Hasakeh,الحسكة,SY08,Al-Hasakeh,مركز الحسكة,SY0800,Al-Hasakeh,مركز الحسكة,SY080000,Al-Hasakeh,الحسكة,C4360,<Null>,<Null>,<Null>,Al Tala'e',الطلائع,N0374,Al Talae,الطلائع,,,,,2016-09-05,,,SY0800023
Syrian Arab Republic,الجمهورية العربية السورية,SY,Aleppo,حلب,SY02,Jebel Saman,جبل سمعان,SY0200,Jebel Saman,مركز جبل سمعان,SY020000,Aleppo,حلب,C1007,,,,Mokhayam Handarat,مخيم حندرات,N0227,Mokhayam Handarat,مخيم حندرات,,,,,2016-09-05,,,SY0200165
Syrian Arab Republic,الجمهورية العربية السورية,SY,Damascus,دمشق,SY01,Damascus,دمشق,SY0100,Damascus,دمشق,SY010000,Damascus,دمشق,C1001,Al Qadam,القدم,A015,Al Assali,العسالي,N0097,Al Assali,العسالي,,,,,2016-09-05,,,SY0100125
Syrian Arab Republic,الجمهورية العربية السورية,SY,Damascus,دمشق,SY01,Damascus,دمشق,SY0100,Damascus,دمشق,SY010000,Damascus,دمشق,C1001,Al Qadam,القدم,A015,Qadam Sharqi,القدم الشرقي,N0096,Qadam Sharqi,القدم الشرقي,,,,,2016-09-05,,,SY0100124
Syrian Arab Republic,الجمهورية العربية السورية,SY,Damascus,دمشق,SY01,Damascus,دمشق,SY0100,Damascus,دمشق,SY010000,Damascus,دمشق,C1001,Al Qadam,القدم,A015,Al Qadam,القدم  ,N0094,Al Qadam,القدم  ,,,,,2016-09-05,,,SY0100127
Syrian Arab Republic,الجمهورية العربية السورية,SY,Damascus,دمشق,SY01,Damascus,دمشق,SY0100,Damascus,دمشق,SY010000,Damascus,دمشق,C1001,Al Qadam,القدم,A015,Jouret Shreibati,جورة الشريباتي,N0093,Jouret Shreibati,جورة الشريباتي,,,,,2016-09-05,,,SY0100123
Syrian Arab Republic,الجمهورية العربية السورية,SY,Aleppo,حلب,SY02,Jebel Saman,جبل سمعان,SY0200,Jebel Saman,مركز جبل سمعان,SY020000,Aleppo,حلب,C1007,<Null>,<Null>,<Null>,Qa'alet Al-Sharif,قلعة الشريف,N0198,Qaalet Al-Sharif,قلعة الشريف,,,,,2016-09-05,,,SY0200017
Syrian Arab Republic,الجمهورية العربية السورية,SY,Aleppo,حلب,SY02,Jebel Saman,جبل سمعان,SY0200,Jebel Saman,مركز جبل سمعان,SY020000,Aleppo,حلب,C1007,<Null>,<Null>,<Null>,Al-A'ajam,العجم,N0190,Al-Aajam,العجم,,,,,2016-09-05,,,SY0200019
Syrian Arab Republic,الجمهورية العربية السورية,SY,Aleppo,حلب,SY02,Jebel Saman,جبل سمعان,SY0200,Jebel Saman,مركز جبل سمعان,SY020000,Aleppo,حلب,C1007,<Null>,<Null>,<Null>,Oghlu Bek,أوغلو بك,N0186,Oghlu Bek,أوغلو بك,,,,,2016-09-05,,,SY0200015
Syrian Arab Republic,الجمهورية العربية السورية,SY,Aleppo,حلب,SY02,Jebel Saman,جبل سمعان,SY0200,Jebel Saman,مركز جبل سمعان,SY020000,Aleppo,حلب,C1007,<Null>,<Null>,<Null>,Al-Asileh,الأصيلة,N0201,Al-Asileh,الأصيلة,,,,,2016-09-05,,,SY0200014
Syrian Arab Republic,الجمهورية العربية السورية,SY,Aleppo,حلب,SY02,Jebel Saman,جبل سمعان,SY0200,Jebel Saman,مركز جبل سمعان,SY020000,Aleppo,حلب,C1007,<Null>,<Null>,<Null>,Sahet Bizzeh,ساحة بزة,N0199,Sahet Bizzeh,ساحة بزة,,,,,2016-09-05,,,SY0200017
Syrian Arab Republic,الجمهورية العربية السورية,SY,Aleppo,حلب,SY02,Jebel Saman,جبل سمعان,SY0200,Jebel Saman,مركز جبل سمعان,SY020000,Aleppo,حلب,C1007,<Null>,<Null>,<Null>,Al-Jalloum,الجلوم,N0189,Al-Jalloum,الجلوم,,,,,2016-09-05,,,SY0200013
Syrian Arab Republic,الجمهورية العربية السورية,SY,Aleppo,حلب,SY02,Jebel Saman,جبل سمعان,SY0200,Jebel Saman,مركز جبل سمعان,SY020000,Aleppo,حلب,C1007,<Null>,<Null>,<Null>,Al-Madina Old Souq,سوق المدينة القديم,N0185,Al-Madina Old Souq,سوق المدينة القديم,,,,,2016-09-05,,,SY0200016
Syrian Arab Republic,الجمهورية العربية السورية,SY,Aleppo,حلب,SY02,Jebel Saman,جبل سمعان,SY0200,Jebel Saman,مركز جبل سمعان,SY020000,Aleppo,حلب,C1007,<Null>,<Null>,<Null>,Al-Farafra,الفرافرة,N0170,Al-Farafra,الفرافرة,,,,,2016-09-05,,,SY0200011
Syrian Arab Republic,الجمهورية العربية السورية,SY,Aleppo,حلب,SY02,Jebel Saman,جبل سمعان,SY0200,Jebel Saman,مركز جبل سمعان,SY020000,Aleppo,حلب,C1007,<Null>,<Null>,<Null>,Al-Aqabeh,العقبة,N0175,Al-Aqabeh,العقبة,,,,,2016-09-05,,,SY0200012
Syrian Arab Republic,الجمهورية العربية السورية,SY,Aleppo,حلب,SY02,Jebel Saman,جبل سمعان,SY0200,Jebel Saman,مركز جبل سمعان,SY020000,Aleppo,حلب,C1007,<Null>,<Null>,<Null>,Bayada,بياضة,N0178,Bayada - Aleppo,بياضة - حلب,,,,,2016-09-05,,,SY0200016
Syrian Arab Republic,الجمهورية العربية السورية,SY,Aleppo,حلب,SY02,Jebel Saman,جبل سمعان,SY0200,Jebel Saman,مركز جبل سمعان,SY020000,Aleppo,حلب,C1007,<Null>,<Null>,<Null>,Sheikh Kheder,شيخ خضر,N0134,Sheikh Kheder,شيخ خضر,,,,,2016-09-05,,,SY0200096
Syrian Arab Republic,الجمهورية العربية السورية,SY,Aleppo,حلب,SY02,Jebel Saman,جبل سمعان,SY0200,Jebel Saman,مركز جبل سمعان,SY020000,Aleppo,حلب,C1007,<Null>,<Null>,<Null>,Trab Al-Hellok,تراب الحيلوك,N0126,Trab Al-Hellok,تراب الحيلوك,,,,,2016-09-05,,,SY0200106
Syrian Arab Republic,الجمهورية العربية السورية,SY,Aleppo,حلب,SY02,Jebel Saman,جبل سمعان,SY0200,Jebel Saman,مركز جبل سمعان,SY020000,Aleppo,حلب,C1007,<Null>,<Null>,<Null>,Ba'aiedin,بعيدين,N0125,Baaiedin,بعيدين,,,,,2016-09-05,,,SY0200097
Syrian Arab Republic,الجمهورية العربية السورية,SY,Aleppo,حلب,SY02,Jebel Saman,جبل سمعان,SY0200,Jebel Saman,مركز جبل سمعان,SY020000,Aleppo,حلب,C1007,<Null>,<Null>,<Null>,Haydariyeh,حيدرية,N0122,Haydariyeh,حيدرية,,,,,2016-09-05,,,SY0200098
Syrian Arab Republic,الجمهورية العربية السورية,SY,Homs,حمص,SY04,Homs,مركز حمص,SY0401,Homs,مركز حمص,SY040100,Homs,حمص,C2528,<Null>,<Null>,<Null>,Bayada,البياضة,N0240,Bayada - Homs,البياضة - حمص,,,,,2016-09-05,,,SY0400083
Syrian Arab Republic,الجمهورية العربية السورية,SY,Homs,حمص,SY04,Homs,مركز حمص,SY0401,Homs,مركز حمص,SY040100,Homs,حمص,C2528,<Null>,<Null>,<Null>,Baba Amr,بابا عمرو,N0268,Baba Amr,بابا عمرو,,,,,2016-09-05,,,SY0400091
Syrian Arab Republic,الجمهورية العربية السورية,SY,Homs,حمص,SY04,Homs,مركز حمص,SY0401,Homs,مركز حمص,SY040100,Homs,حمص,C2528,<Null>,<Null>,<Null>,Daheyat Al-Waleed,ضاحية الوليد,N0272,Daheyat Al-Waleed,ضاحية الوليد,,,,,2016-09-05,,,SY0400026
Syrian Arab Republic,الجمهورية العربية السورية,SY,Homs,حمص,SY04,Homs,مركز حمص,SY0401,Homs,مركز حمص,SY040100,Homs,حمص,C2528,<Null>,<Null>,<Null>,Ikrima,عكرمة,N0267,Ikrima,عكرمة,,,,,2016-09-05,,,SY0400024
Syrian Arab Republic,الجمهورية العربية السورية,SY,Homs,حمص,SY04,Homs,مركز حمص,SY0401,Homs,مركز حمص,SY040100,Homs,حمص,C2528,<Null>,<Null>,<Null>,Karm Al-Loaz,كرم اللوز,N0266,Karm Al-Loaz,كرم اللوز,,,,,2016-09-05,,,SY0400036
Syrian Arab Republic,الجمهورية العربية السورية,SY,Lattakia,اللاذقية,SY06,Lattakia,مركز اللاذقية,SY0600,Lattakia,مركز اللاذقية,SY060000,Lattakia,اللاذقية,C3480,<Null>,<Null>,<Null>,Baath,البعث,N0335,Baath (Lattakia),البعث - اللاذقية,,,,,2016-09-05,,,SY0600032
Syrian Arab Republic,الجمهورية العربية السورية,SY,Lattakia,اللاذقية,SY06,Lattakia,مركز اللاذقية,SY0600,Lattakia,مركز اللاذقية,SY060000,Lattakia,اللاذقية,C3480,<Null>,<Null>,<Null>,7 Nisan,السابع من نيسان,N0337,7 Nisan,السابع من نيسان,,,,,2016-09-05,,,SY0600033
Syrian Arab Republic,الجمهورية العربية السورية,SY,Lattakia,اللاذقية,SY06,Lattakia,مركز اللاذقية,SY0600,Lattakia,مركز اللاذقية,SY060000,Lattakia,اللاذقية,C3480,<Null>,<Null>,<Null>,Tishrine,تشرين,N0334,Tishrine (Lattakia),تشرين - اللاذقية,,,,,2016-09-05,,,SY0600034
Syrian Arab Republic,الجمهورية العربية السورية,SY,Lattakia,اللاذقية,SY06,Lattakia,مركز اللاذقية,SY0600,Lattakia,مركز اللاذقية,SY060000,Lattakia,اللاذقية,C3480,<Null>,<Null>,<Null>,Ogharit,أوغاريت,N0330,Ogharit,أوغاريت,,,,,2016-09-05,,,SY0600041
Syrian Arab Republic,الجمهورية العربية السورية,SY,Lattakia,اللاذقية,SY06,Lattakia,مركز اللاذقية,SY0600,Lattakia,مركز اللاذقية,SY060000,Lattakia,اللاذقية,C3480,<Null>,<Null>,<Null>,Basnada,بسنادا,N0331,Basnada,بسنادا,,,,,2016-09-05,,,SY0600042
Syrian Arab Republic,الجمهورية العربية السورية,SY,Lattakia,اللاذقية,SY06,Lattakia,مركز اللاذقية,SY0600,Lattakia,مركز اللاذقية,SY060000,Lattakia,اللاذقية,C3480,<Null>,<Null>,<Null>,Sheikh Daher,الشيخ ضاهر,N0338,Sheikh Daher,الشيخ ضاهر,,,,,2016-09-05,,,SY0600011
Syrian Arab Republic,الجمهورية العربية السورية,SY,Lattakia,اللاذقية,SY06,Lattakia,مركز اللاذقية,SY0600,Lattakia,مركز اللاذقية,SY060000,Lattakia,اللاذقية,C3480,<Null>,<Null>,<Null>,Sleiba,الصليبة,N0344,Sleiba,الصليبة,,,,,2016-09-05,,,SY0600013
Syrian Arab Republic,الجمهورية العربية السورية,SY,Lattakia,اللاذقية,SY06,Lattakia,مركز اللاذقية,SY0600,Lattakia,مركز اللاذقية,SY060000,Lattakia,اللاذقية,C3480,<Null>,<Null>,<Null>,Tabiyat,الطابيات,N0343,Tabiyat,الطابيات,,,,,2016-09-05,,,SY0600014
Syrian Arab Republic,الجمهورية العربية السورية,SY,Lattakia,اللاذقية,SY06,Lattakia,مركز اللاذقية,SY0600,Lattakia,مركز اللاذقية,SY060000,Lattakia,اللاذقية,C3480,<Null>,<Null>,<Null>,Quds,القدس,N0342,Quds,القدس,,,,,2016-09-05,,,SY0600021
Syrian Arab Republic,الجمهورية العربية السورية,SY,Lattakia,اللاذقية,SY06,Lattakia,مركز اللاذقية,SY0600,Lattakia,مركز اللاذقية,SY060000,Lattakia,اللاذقية,C3480,<Null>,<Null>,<Null>,Jomhouriyeh,الجمهورية,N0336,Jomhouriyeh,الجمهورية,,,,,2016-09-05,,,SY0600051
Syrian Arab Republic,الجمهورية العربية السورية,SY,Lattakia,اللاذقية,SY06,Lattakia,مركز اللاذقية,SY0600,Lattakia,مركز اللاذقية,SY060000,Lattakia,اللاذقية,C3480,<Null>,<Null>,<Null>,Al Asad,الأسد,N0328,Al Asad,الأسد,,,,,2016-09-05,,,SY0600052
Syrian Arab Republic,الجمهورية العربية السورية,SY,Lattakia,اللاذقية,SY06,Lattakia,مركز اللاذقية,SY0600,Lattakia,مركز اللاذقية,SY060000,Lattakia,اللاذقية,C3480,<Null>,<Null>,<Null>,Squbeen,سقوبين,N0329,Squbeen,سقوبين,,,,,2016-09-05,,,new
Syrian Arab Republic,الجمهورية العربية السورية,SY,Lattakia,اللاذقية,SY06,Lattakia,مركز اللاذقية,SY0600,Lattakia,مركز اللاذقية,SY060000,Lattakia,اللاذقية,C3480,<Null>,<Null>,<Null>,Sunjuwan,سنجوان,N0332,Sunjuwan,سنجوان,,,,,2016-09-05,,,new
Syrian Arab Republic,الجمهورية العربية السورية,SY,Idleb,إدلب,SY07,Idleb,مركز إدلب,SY0700,Idleb,مركز إدلب,SY070000,Idleb,إدلب,C3871,<Null>,<Null>,<Null>,Al Sharqui,الشرقي,N0358,Hettin (Idleb),الشرقي,,,,,2016-09-05,,,SY0700042
Syrian Arab Republic,الجمهورية العربية السورية,SY,Idleb,إدلب,SY07,Idleb,مركز إدلب,SY0700,Idleb,مركز إدلب,SY070000,Idleb,إدلب,C3871,<Null>,<Null>,<Null>,City Centre,مركز المدينة,N0356,Wasat Al Madinah,مركز المدينة,,,,,2016-09-05,,,SY0700032
Syrian Arab Republic,الجمهورية العربية السورية,SY,Idleb,إدلب,SY07,Idleb,مركز إدلب,SY0700,Idleb,مركز إدلب,SY070000,Idleb,إدلب,C3871,<Null>,<Null>,<Null>,Al Shamali,الشمالي,N0355,Hijaz (Idleb),الشمالي,,,,,2016-09-05,,,SY0700041
Syrian Arab Republic,الجمهورية العربية السورية,SY,Idleb,إدلب,SY07,Idleb,مركز إدلب,SY0700,Idleb,مركز إدلب,SY070000,Idleb,إدلب,C3871,<Null>,<Null>,<Null>,Al Gharbi,الغربي,N0357,Ashrafiyeh (Idleb),الغربي,,,,,2016-09-05,,,SY0700021
Syrian Arab Republic,الجمهورية العربية السورية,SY,Idleb,إدلب,SY07,Idleb,مركز إدلب,SY0700,Idleb,مركز إدلب,SY070000,Idleb,إدلب,C3871,<Null>,<Null>,<Null>,Al Janoubi,الجنوبي,N0359,Al Janoubi,الجنوبي,,,,,2016-09-05,,,SY0700011
Syrian Arab Republic,الجمهورية العربية السورية,SY,Dar'a,درعا,SY12,Dar'a,درعا,SY1200,Dar'a,مركز درعا,SY120000,Dar'a,درعا,C5993,<Null>,<Null>,<Null>,Shuhada,الشهداء,N0502,Shuhada (Daraa),الشهداء - درعا,,,,,2016-09-05,,,SY1200011
Syrian Arab Republic,الجمهورية العربية السورية,SY,Dar'a,درعا,SY12,Dar'a,درعا,SY1200,Dar'a,مركز درعا,SY120000,Dar'a,درعا,C5993,<Null>,<Null>,<Null>,Zahraa,الزهراء,N0498,Zahraa (Daraa),الزهراء - درعا,,,,,2016-09-05,,,SY1200012
Syrian Arab Republic,الجمهورية العربية السورية,SY,Dar'a,درعا,SY12,Dar'a,درعا,SY1200,Dar'a,مركز درعا,SY120000,Dar'a,درعا,C5993,<Null>,<Null>,<Null>,Maysalun,ميسلون,N0497,Maysalun (Daraa),ميسلون - درعا,,,,,2016-09-05,,,SY1200013
Syrian Arab Republic,الجمهورية العربية السورية,SY,Dar'a,درعا,SY12,Dar'a,درعا,SY1200,Dar'a,مركز درعا,SY120000,Dar'a,درعا,C5993,<Null>,<Null>,<Null>,Hettin,حطين,N0499,Hettin (Dara),حطين - درعا,,,,,2016-09-05,,,SY1200014
Syrian Arab Republic,الجمهورية العربية السورية,SY,Dar'a,درعا,SY12,Dar'a,درعا,SY1200,Dar'a,مركز درعا,SY120000,Dar'a,درعا,C5993,<Null>,<Null>,<Null>,Ghernata, غرناطة,N0504,Ghernata, غرناطة,,,,,2016-09-05,,,SY1200015
Syrian Arab Republic,الجمهورية العربية السورية,SY,Dar'a,درعا,SY12,Dar'a,درعا,SY1200,Dar'a,مركز درعا,SY120000,Dar'a,درعا,C5993,<Null>,<Null>,<Null>,Quneitra,القنيطرة,N0503,Quneitra,القنيطرة,,,,,2016-09-05,,,SY1200016
Syrian Arab Republic,الجمهورية العربية السورية,SY,Dar'a,درعا,SY12,Dar'a,درعا,SY1200,Dar'a,مركز درعا,SY120000,Dar'a,درعا,C5993,<Null>,<Null>,<Null>,Al Mantiqa Al Sina'iyeh,المنطقة الصناعية,N0500,Al Mantiqa Al Sinaiyeh ,المنطقة الصناعية,,,,,2016-09-05,,,SY1200017
Syrian Arab Republic,الجمهورية العربية السورية,SY,Dar'a,درعا,SY12,Dar'a,درعا,SY1200,Dar'a,مركز درعا,SY120000,Dar'a,درعا,C5993,<Null>,<Null>,<Null>,Al_Sad,السد,N0508,As Sadd,السد,,,,,2016-09-05,,,SY1200018
Syrian Arab Republic,الجمهورية العربية السورية,SY,Dar'a,درعا,SY12,Dar'a,درعا,SY1200,Dar'a,مركز درعا,SY120000,Dar'a,درعا,C5993,<Null>,<Null>,<Null>,Karak,الكرك,N0505,Karak,الكرك,,,,,2016-09-05,,,SY1200021
Syrian Arab Republic,الجمهورية العربية السورية,SY,Dar'a,درعا,SY12,Dar'a,درعا,SY1200,Dar'a,مركز درعا,SY120000,Dar'a,درعا,C5993,<Null>,<Null>,<Null>,Al Yarmouk,اليرموك,N0509,Yarmuk (Daraa),اليرموك - درعا,,,,,2016-09-05,,,SY1200022
Syrian Arab Republic,الجمهورية العربية السورية,SY,Dar'a,درعا,SY12,Dar'a,درعا,SY1200,Dar'a,مركز درعا,SY120000,Dar'a,درعا,C5993,<Null>,<Null>,<Null>,Alabbasiah,العباسية,N0507,Abbasiyeen,العباسية,,,,,2016-09-05,,,SY1200023
Syrian Arab Republic,الجمهورية العربية السورية,SY,Dar'a,درعا,SY12,Dar'a,درعا,SY1200,Dar'a,مركز درعا,SY120000,Dar'a,درعا,C5993,<Null>,<Null>,<Null>,Al Mansheyah,المنشية,N0506,Manshiyeh,المنشية,,,,,2016-09-05,,,SY1200024
Syrian Arab Republic,الجمهورية العربية السورية,SY,Dar'a,درعا,SY12,Dar'a,درعا,SY1200,Dar'a,مركز درعا,SY120000,Dar'a,درعا,C5993,<Null>,<Null>,<Null>,Qadessiyeh,القادسية,N0501,Qadessiyeh (Daraa),القادسية - درعا,,,,,2016-09-05,,,SY1200025
Syrian Arab Republic,الجمهورية العربية السورية,SY,Dar'a,درعا,SY12,Dar'a,درعا,SY1200,Dar'a,مركز درعا,SY120000,Dar'a,درعا,C5993,<Null>,<Null>,<Null>,Arbaine,الأربعين,N0510,Arbaine,الأربعين,,,,,2016-09-05,,,SY1200026
Syrian Arab Republic,الجمهورية العربية السورية,SY,Dar'a,درعا,SY12,Dar'a,درعا,SY1200,Dar'a,مركز درعا,SY120000,Dar'a,درعا,C5993,<Null>,<Null>,<Null>,Bahar,البحار,N0511,Bahar,البحار,,,,,2016-09-05,,,SY1200027
Syrian Arab Republic,الجمهورية العربية السورية,SY,Dar'a,درعا,SY12,Dar'a,درعا,SY1200,Dar'a,مركز درعا,SY120000,Dar'a,درعا,C5993,<Null>,<Null>,<Null>,Oumawiyeen,الأمويين,N0496,Oumawiyeen,الأمويين,,,,,2016-09-05,,,SY1200031
Syrian Arab Republic,الجمهورية العربية السورية,SY,Dar'a,درعا,SY12,Dar'a,درعا,SY1200,Dar'a,مركز درعا,SY120000,Dar'a,درعا,C5993,<Null>,<Null>,<Null>,Baath,البعث,N0494,Baath (Dara),البعث - درعا,,,,,2016-09-05,,,SY1200032
Syrian Arab Republic,الجمهورية العربية السورية,SY,Dar'a,درعا,SY12,Dar'a,درعا,SY1200,Dar'a,مركز درعا,SY120000,Dar'a,درعا,C5993,<Null>,<Null>,<Null>,Tishrine,تشرين,N0493,Tishrine (Dara),تشرين - درعا,,,,,2016-09-05,,,SY1200041
Syrian Arab Republic,الجمهورية العربية السورية,SY,Dar'a,درعا,SY12,Dar'a,درعا,SY1200,Dar'a,مركز درعا,SY120000,Dar'a,درعا,C5993,<Null>,<Null>,<Null>,Al- Thawrah,الثورة,N0495,Al- Thawrah (Daraa),الثورة - درعا,,,,,2016-09-05,,,SY1200042
Syrian Arab Republic,الجمهورية العربية السورية,SY,Dar'a,درعا,SY12,Dar'a,درعا,SY1200,Dar'a,مركز درعا,SY120000,Dar'a,درعا,C5993,<Null>,<Null>,<Null>,Elshahid Basil Elasad,الشهيد باسل الأسد,N0492,Elshahid Basil Elasad,الشهيد باسل الأسد,,,,,2016-09-05,,,SY1200043
Syrian Arab Republic,الجمهورية العربية السورية,SY,Hama,حماة,SY05,Hama,مركز حماة,SY0501,Hama,مركز حماة,SY050100,Hama,حماة,C2987,<Null>,<Null>,<Null>,Dahriyeh,الضاهرية,N0283,Dahriyeh,الضاهرية,,,,,2016-09-05,,,SY0500015
Syrian Arab Republic,الجمهورية العربية السورية,SY,Hama,حماة,SY05,Hama,مركز حماة,SY0501,Hama,مركز حماة,SY050100,Hama,حماة,C2987,<Null>,<Null>,<Null>,Kazou,كازو,N0289,Kazou,كازو,,,,,2016-09-05,,,SY0500028
Syrian Arab Republic,الجمهورية العربية السورية,SY,Hama,حماة,SY05,Hama,مركز حماة,SY0501,Hama,مركز حماة,SY050100,Hama,حماة,C2987,<Null>,<Null>,<Null>,Baath,البعث,N0297,Baath (Hama),البعث - حماة,,,,,2016-09-05,,,SY0500027
Syrian Arab Republic,الجمهورية العربية السورية,SY,Hama,حماة,SY05,Hama,مركز حماة,SY0501,Hama,مركز حماة,SY050100,Hama,حماة,C2987,<Null>,<Null>,<Null>,Andalus,الأندلس,N0308,Andalus (Hama),الأندلس - حماة,,,,,2016-09-05,,,SY0500034
Syrian Arab Republic,الجمهورية العربية السورية,SY,Hama,حماة,SY05,Hama,مركز حماة,SY0501,Hama,مركز حماة,SY050100,Hama,حماة,C2987,<Null>,<Null>,<Null>,Jalaa,الجلاء,N0312,Jalaa,الجلاء - حماة,,,,,2016-09-05,,,SY0500035
Syrian Arab Republic,الجمهورية العربية السورية,SY,Hama,حماة,SY05,Hama,مركز حماة,SY0501,Hama,مركز حماة,SY050100,Hama,حماة,C2987,<Null>,<Null>,<Null>,Nasr,النصر,N0316,Nasr,النصر,,,,,2016-09-05,,,SY0500039
Syrian Arab Republic,الجمهورية العربية السورية,SY,Hama,حماة,SY05,Hama,مركز حماة,SY0501,Hama,مركز حماة,SY050100,Hama,حماة,C2987,<Null>,<Null>,<Null>,Abi Al Fedaa,أبي الفداء,N0317,Abi Al Fedaa,أبي الفداء,,,,,2016-09-05,,,SY0500045
Syrian Arab Republic,الجمهورية العربية السورية,SY,Hama,حماة,SY05,Hama,مركز حماة,SY0501,Hama,مركز حماة,SY050100,Hama,حماة,C2987,<Null>,<Null>,<Null>,Riyadi,الرياضي,N0314,Riyadi,الرياضي,,,,,2016-09-05,,,SY0500044
Syrian Arab Republic,الجمهورية العربية السورية,SY,Hama,حماة,SY05,Hama,مركز حماة,SY0501,Hama,مركز حماة,SY050100,Hama,حماة,C2987,<Null>,<Null>,<Null>,Shari'a,الشريعة,N0309,Sharia,الشريعة,,,,,2016-09-05,,,SY0500041
Syrian Arab Republic,الجمهورية العربية السورية,SY,Hama,حماة,SY05,Hama,مركز حماة,SY0501,Hama,مركز حماة,SY050100,Hama,حماة,C2987,<Null>,<Null>,<Null>,Sabouniyeh,صابونية,N0313,Sabouniyeh,صابونية,,,,,2016-09-05,,,SY0500043
Syrian Arab Republic,الجمهورية العربية السورية,SY,Hama,حماة,SY05,Hama,مركز حماة,SY0501,Hama,مركز حماة,SY050100,Hama,حماة,C2987,<Null>,<Null>,<Null>,Aleiliyat,العليليات,N0307,Aleiliyat,العليليات,,,,,2016-09-05,,,SY0500042
Syrian Arab Republic,الجمهورية العربية السورية,SY,Hama,حماة,SY05,Hama,مركز حماة,SY0501,Hama,مركز حماة,SY050100,Hama,حماة,C2987,<Null>,<Null>,<Null>,Frayeh,الفراية,N0311,Frayeh,الفراية,,,,,2016-09-05,,,SY0500037
Syrian Arab Republic,الجمهورية العربية السورية,SY,Hama,حماة,SY05,Hama,مركز حماة,SY0501,Hama,مركز حماة,SY050100,Hama,حماة,C2987,<Null>,<Null>,<Null>,Mahalbeh,المحالبة,N0310,Mahalbeh,المحالبة,,,,,2016-09-05,,,SY0500036
Syrian Arab Republic,الجمهورية العربية السورية,SY,Hama,حماة,SY05,Hama,مركز حماة,SY0501,Hama,مركز حماة,SY050100,Hama,حماة,C2987,<Null>,<Null>,<Null>,Hawarneh,الحوارنة,N0305,Hawarneh,الحوارنة,,,,,2016-09-05,,,SY0500033
Syrian Arab Republic,الجمهورية العربية السورية,SY,Hama,حماة,SY05,Hama,مركز حماة,SY0501,Hama,مركز حماة,SY050100,Hama,حماة,C2987,<Null>,<Null>,<Null>,Dabagha,الدباغة,N0304,Dabagha,الدباغة,,,,,2016-09-05,,,SY0500031
Syrian Arab Republic,الجمهورية العربية السورية,SY,Hama,حماة,SY05,Hama,مركز حماة,SY0501,Hama,مركز حماة,SY050100,Hama,حماة,C2987,<Null>,<Null>,<Null>,Bab Qebli,باب القبلي,N0303,Bab Qebli,باب القبلي,,,,,2016-09-05,,,SY0500024
Syrian Arab Republic,الجمهورية العربية السورية,SY,Hama,حماة,SY05,Hama,مركز حماة,SY0501,Hama,مركز حماة,SY050100,Hama,حماة,C2987,<Null>,<Null>,<Null>,Madina,المدينة,N0299,Madina,المدينة,,,,,2016-09-05,,,SY0500023
Syrian Arab Republic,الجمهورية العربية السورية,SY,Hama,حماة,SY05,Hama,مركز حماة,SY0501,Hama,مركز حماة,SY050100,Hama,حماة,C2987,<Null>,<Null>,<Null>,Zanbaqi,الزنبقي,N0298,Zanbaqi,الزنبقي,,,,,2016-09-05,,,SY0500011
Syrian Arab Republic,الجمهورية العربية السورية,SY,Hama,حماة,SY05,Hama,مركز حماة,SY0501,Hama,مركز حماة,SY050100,Hama,حماة,C2987,<Null>,<Null>,<Null>,Shamaliyeh,الشمالية,N0294,Shamaliyeh,الشمالية,,,,,2016-09-05,,,SY0500052
Syrian Arab Republic,الجمهورية العربية السورية,SY,Hama,حماة,SY05,Hama,مركز حماة,SY0501,Hama,مركز حماة,SY050100,Hama,حماة,C2987,<Null>,<Null>,<Null>,Baroudiyeh,البارودية,N0301,Baroudiyeh,البارودية,,,,,2016-09-05,,,SY0500051
Syrian Arab Republic,الجمهورية العربية السورية,SY,Hama,حماة,SY05,Hama,مركز حماة,SY0501,Hama,مركز حماة,SY050100,Hama,حماة,C2987,<Null>,<Null>,<Null>,Hameidiyyeh,الحميدية,N0292,Hameidiyyeh (Hama),الحميدية - حماة,,,,,2016-09-05,,,SY0500053
Syrian Arab Republic,الجمهورية العربية السورية,SY,Hama,حماة,SY05,Hama,مركز حماة,SY0501,Hama,مركز حماة,SY050100,Hama,حماة,C2987,<Null>,<Null>,<Null>,Granada,غرناطة,N0291,Granada,غرناطة,,,,,2016-09-05,,,SY0500054
Syrian Arab Republic,الجمهورية العربية السورية,SY,Hama,حماة,SY05,Hama,مركز حماة,SY0501,Hama,مركز حماة,SY050100,Hama,حماة,C2987,<Null>,<Null>,<Null>,Al-Sinaha,الصناعة,N0300,Al-Sinaha,الصناعة,,,,,2016-09-05,,,new
Syrian Arab Republic,الجمهورية العربية السورية,SY,Hama,حماة,SY05,Hama,مركز حماة,SY0501,Hama,مركز حماة,SY050100,Hama,حماة,C2987,<Null>,<Null>,<Null>,Souq Al-Ghanam,سوق الغنم,N0286,Souq Al-Ghanam,سوق الغنم,,,,,2016-09-05,,,new
Syrian Arab Republic,الجمهورية العربية السورية,SY,Hama,حماة,SY05,Hama,مركز حماة,SY0501,Hama,مركز حماة,SY050100,Hama,حماة,C2987,<Null>,<Null>,<Null>,Al Fayhaa,الفيحاء,N0287,Al Fayhaa,الفيحاء - حماة,,,,,2016-09-05,,,SY0500053
Syrian Arab Republic,الجمهورية العربية السورية,SY,Hama,حماة,SY05,Hama,مركز حماة,SY0501,Hama,مركز حماة,SY050100,Hama,حماة,C2987,<Null>,<Null>,<Null>,Sabil,السبيل,N0285,Sabil,السبيل - حماة,,,,,2016-09-05,,,SY0500056
Syrian Arab Republic,الجمهورية العربية السورية,SY,Hama,حماة,SY05,Hama,مركز حماة,SY0501,Hama,مركز حماة,SY050100,Hama,حماة,C2987,<Null>,<Null>,<Null>,Aedin,العائدين,N0290,Aedin,العائدين,,,,,2016-09-05,,,SY0500014
Syrian Arab Republic,الجمهورية العربية السورية,SY,Hama,حماة,SY05,Hama,مركز حماة,SY0501,Hama,مركز حماة,SY050100,Hama,حماة,C2987,<Null>,<Null>,<Null>,Shahbaa,الشهباء,N0288,Shahbaa,الشهباء - حماة,,,,,2016-09-05,,,SY0500012
Syrian Arab Republic,الجمهورية العربية السورية,SY,Hama,حماة,SY05,Hama,مركز حماة,SY0501,Hama,مركز حماة,SY050100,Hama,حماة,C2987,<Null>,<Null>,<Null>,Tishrine,تشرين,N0284,Tishrine (Hama),تشرين - حماة,,,,,2016-09-05,,,SY0500013
Syrian Arab Republic,الجمهورية العربية السورية,SY,Hama,حماة,SY05,Hama,مركز حماة,SY0501,Hama,مركز حماة,SY050100,Hama,حماة,C2987,<Null>,<Null>,<Null>,Jarajmeh,الجراجمة,N0293,Jarajmeh,الجراجمة,,,,,2016-09-05,,,SY0500025
Syrian Arab Republic,الجمهورية العربية السورية,SY,Hama,حماة,SY05,Hama,مركز حماة,SY0501,Hama,مركز حماة,SY050100,Hama,حماة,C2987,<Null>,<Null>,<Null>,Al- horrieh_ Mohafaza,الحرية_ المحافظة,N0295,Al- horrieh_ Mohafaza,الحرية_ المحافظة,,,,,2016-09-05,,,SY0500026
Syrian Arab Republic,الجمهورية العربية السورية,SY,Hama,حماة,SY05,Hama,مركز حماة,SY0501,Hama,مركز حماة,SY050100,Hama,حماة,C2987,<Null>,<Null>,<Null>,Ein Al Louzeh,عين اللوزة,N0315,Ein Al Louzeh,عين اللوزة,,,,,2016-09-05,,,SY0500038
Syrian Arab Republic,الجمهورية العربية السورية,SY,Hama,حماة,SY05,Hama,مركز حماة,SY0501,Hama,مركز حماة,SY050100,Hama,حماة,C2987,<Null>,<Null>,<Null>,Souq Ash Shajra,سوق الشجرة,N0306,Souq Ash Shajra,سوق الشجرة,,,,,2016-09-05,,,SY0500032
Syrian Arab Republic,الجمهورية العربية السورية,SY,Hama,حماة,SY05,Hama,مركز حماة,SY0501,Hama,مركز حماة,SY050100,Hama,حماة,C2987,<Null>,<Null>,<Null>,Bab Al Jesr,باب الجسر,N0296,Bab Al Jesr,باب الجسر,,,,,2016-09-05,,,SY0500021
Syrian Arab Republic,الجمهورية العربية السورية,SY,Hama,حماة,SY05,Hama,مركز حماة,SY0501,Hama,مركز حماة,SY050100,Hama,حماة,C2987,<Null>,<Null>,<Null>,Bashoura,الباشورة,N0302,Bashoura,الباشورة,,,,,2016-09-05,,,SY0500022
Syrian Arab Republic,الجمهورية العربية السورية,SY,As-Sweida,السويداء,SY13,As-Sweida,مركز السويداء,SY1300,As-Sweida,مركز السويداء,SY130000,As-Sweida,السويداء,C6147,<Null>,<Null>,<Null>,Wihdeh,الوحدة,N0522,Wihdeh (As-Sweida),الوحدة - السويداء,,,,,2016-09-05,,,SY1300011
Syrian Arab Republic,الجمهورية العربية السورية,SY,As-Sweida,السويداء,SY13,As-Sweida,مركز السويداء,SY1300,As-Sweida,مركز السويداء,SY130000,As-Sweida,السويداء,C6147,<Null>,<Null>,<Null>,Nahda,النهضة,N0525,Nahda (As-Sweida),النهضة - السويداء,,,,,2016-09-05,,,SY1300013
Syrian Arab Republic,الجمهورية العربية السورية,SY,As-Sweida,السويداء,SY13,As-Sweida,مركز السويداء,SY1300,As-Sweida,مركز السويداء,SY130000,As-Sweida,السويداء,C6147,<Null>,<Null>,<Null>,Shuhada,الشهداء,N0528,Shuhada (As-Sweida),الشهداء - السويداء,,,,,2016-09-05,,,SY1300021
Syrian Arab Republic,الجمهورية العربية السورية,SY,As-Sweida,السويداء,SY13,As-Sweida,مركز السويداء,SY1300,As-Sweida,مركز السويداء,SY130000,As-Sweida,السويداء,C6147,<Null>,<Null>,<Null>,Fursan,الفرسان,N0529,Fursan,الفرسان,,,,,2016-09-05,,,SY1300022
Syrian Arab Republic,الجمهورية العربية السورية,SY,As-Sweida,السويداء,SY13,As-Sweida,مركز السويداء,SY1300,As-Sweida,مركز السويداء,SY130000,As-Sweida,السويداء,C6147,<Null>,<Null>,<Null>,Istiqlal,الاستقلال,N0531,Istiqlal,الاستقلال - السويداء,,,,,2016-09-05,,,SY1300023
Syrian Arab Republic,الجمهورية العربية السورية,SY,As-Sweida,السويداء,SY13,As-Sweida,مركز السويداء,SY1300,As-Sweida,مركز السويداء,SY130000,As-Sweida,السويداء,C6147,<Null>,<Null>,<Null>,Al- Thawrah,الثورة,N0530,Al- Thawrah (As-Sweida),الثورة - السويداء,,,,,2016-09-05,,,SY1300031
Syrian Arab Republic,الجمهورية العربية السورية,SY,As-Sweida,السويداء,SY13,As-Sweida,مركز السويداء,SY1300,As-Sweida,مركز السويداء,SY130000,As-Sweida,السويداء,C6147,<Null>,<Null>,<Null>,Jihad,الجهاد,N0527,Jihad,الجهاد,,,,,2016-09-05,,,SY1300032
Syrian Arab Republic,الجمهورية العربية السورية,SY,As-Sweida,السويداء,SY13,As-Sweida,مركز السويداء,SY1300,As-Sweida,مركز السويداء,SY130000,As-Sweida,السويداء,C6147,<Null>,<Null>,<Null>,Joulan,الجولان,N0526,Joulan,الجولان,,,,,2016-09-05,,,SY1300041
Syrian Arab Republic,الجمهورية العربية السورية,SY,As-Sweida,السويداء,SY13,As-Sweida,مركز السويداء,SY1300,As-Sweida,مركز السويداء,SY130000,As-Sweida,السويداء,C6147,<Null>,<Null>,<Null>,Mazra'a,المزرعة,N0523,Mazraa,المزرعة - السويداء,,,,,2016-09-05,,,SY1300042
Syrian Arab Republic,الجمهورية العربية السورية,SY,Tartous,طرطوس,SY10,Tartous,مركز طرطوس,SY1000,Tartous,مركز طرطوس,SY100000,Tartous,طرطوس,C5221,<Null>,<Null>,<Null>,Al-Mina,المينة,N0442,Mina,المينة,,,,,2016-09-05,,,SY1000011
Syrian Arab Republic,الجمهورية العربية السورية,SY,Tartous,طرطوس,SY10,Tartous,مركز طرطوس,SY1000,Tartous,مركز طرطوس,SY100000,Tartous,طرطوس,C5221,<Null>,<Null>,<Null>,Al-Karamah,الكرامة,N0443,Karama,الكرامة,,,,,2016-09-05,,,SY1000021
Syrian Arab Republic,الجمهورية العربية السورية,SY,Tartous,طرطوس,SY10,Tartous,مركز طرطوس,SY1000,Tartous,مركز طرطوس,SY100000,Tartous,طرطوس,C5221,<Null>,<Null>,<Null>,Arraml,الرمال,N0446,Raml,الرمال,,,,,2016-09-05,,,SY1000022
Syrian Arab Republic,الجمهورية العربية السورية,SY,Tartous,طرطوس,SY10,Tartous,مركز طرطوس,SY1000,Tartous,مركز طرطوس,SY100000,Tartous,طرطوس,C5221,<Null>,<Null>,<Null>,Al-Ghamkah,الغمقة,N0447,Ghamqa,الغمقة,,,,,2016-09-05,,,SY1000031
Syrian Arab Republic,الجمهورية العربية السورية,SY,Tartous,طرطوس,SY10,Tartous,مركز طرطوس,SY1000,Tartous,مركز طرطوس,SY100000,Tartous,طرطوس,C5221,<Null>,<Null>,<Null>,Al-Malaab,الملعب,N0441,Malaab,الملعب,,,,,2016-09-05,,,SY1000012
Syrian Arab Republic,الجمهورية العربية السورية,SY,Tartous,طرطوس,SY10,Tartous,مركز طرطوس,SY1000,Tartous,مركز طرطوس,SY100000,Tartous,طرطوس,C5221,<Null>,<Null>,<Null>,Al-Hamrat,الحمرات,N0444,Hamrat,الحمرات,,,,,2016-09-05,,,SY1000023
Syrian Arab Republic,الجمهورية العربية السورية,SY,Tartous,طرطوس,SY10,Tartous,مركز طرطوس,SY1000,Tartous,مركز طرطوس,SY100000,Tartous,طرطوس,C5221,<Null>,<Null>,<Null>,Al-Rabieh,الرابية,N0440,Rabieh,الرابية,,,,,2016-09-05,,,SY1000041
Syrian Arab Republic,الجمهورية العربية السورية,SY,Tartous,طرطوس,SY10,Tartous,مركز طرطوس,SY1000,Tartous,مركز طرطوس,SY100000,Tartous,طرطوس,C5221,<Null>,<Null>,<Null>,Al-Mahattah,المحطة,N0445,Mahatta (Tartous),المحطة - طرطوس,,,,,2016-09-05,,,SY1000042
Syrian Arab Republic,الجمهورية العربية السورية,SY,Tartous,طرطوس,SY10,Tartous,مركز طرطوس,SY1000,Tartous,مركز طرطوس,SY100000,Tartous,طرطوس,C5221,<Null>,<Null>,<Null>,Southern(Al-rradar),الجنوبي-الرادار,N0448,Southern(Al-rradar),الجنوبي-الرادار,,,,,2016-09-05,,,new
Syrian Arab Republic,الجمهورية العربية السورية,SY,Damascus,دمشق,SY01,Damascus,دمشق,SY0100,Damascus,دمشق,SY010000,Yarmuk,اليرموك,C1002,Hettin,حطين,,Hettin,حطين,N0110,Hettin - Yarmuk,حطين - اليرموك,,,,,2016-09-05,,,SY01010101
Syrian Arab Republic,الجمهورية العربية السورية,SY,Homs,حمص,SY04,Homs,مركز حمص,SY0401,Homs,مركز حمص,SY040100,Homs,حمص,C2528,<Null>,<Null>,<Null>,Wadi Ath-Thahab,وادي الذهب,N0271,Wadi Ath-Thahab,وادي الذهب,,,,,2016-09-05,,,SY0400038
Syrian Arab Republic,الجمهورية العربية السورية,SY,Homs,حمص,SY04,Homs,مركز حمص,SY0401,Homs,مركز حمص,SY040100,Homs,حمص,C2528,<Null>,<Null>,<Null>,Karm Shamsham,كرم شمشم,N0248,Karm Shamsham,كرم شمشم,,,,,2016-09-05,,,SY0400042
Syrian Arab Republic,الجمهورية العربية السورية,SY,Homs,حمص,SY04,Homs,مركز حمص,SY0401,Homs,مركز حمص,SY040100,Homs,حمص,C2528,<Null>,<Null>,<Null>,Zahra',الزهراء,N0253,Zahraa (Homs),الزهراء - حمص,,,,,2016-09-05,,,SY0400043
Syrian Arab Republic,الجمهورية العربية السورية,SY,Homs,حمص,SY04,Homs,مركز حمص,SY0401,Homs,مركز حمص,SY040100,Homs,حمص,C2528,<Null>,<Null>,<Null>,Abbasiyeh-Muhajreen,العباسية-المهاجرين,N0247,Abbasiyeh-Muhajreen,العباسية-المهاجرين,,,,,2016-09-05,,,SY0400044
Syrian Arab Republic,الجمهورية العربية السورية,SY,Homs,حمص,SY04,Homs,مركز حمص,SY0401,Homs,مركز حمص,SY040100,Homs,حمص,C2528,<Null>,<Null>,<Null>,Sabil,السبيل,N0245,Sabil (Homs),السبيل - حمص,,,,,2016-09-05,,,SY0400045
Syrian Arab Republic,الجمهورية العربية السورية,SY,Homs,حمص,SY04,Homs,مركز حمص,SY0401,Homs,مركز حمص,SY040100,Homs,حمص,C2528,<Null>,<Null>,<Null>,Arman,الأرمن,N0269,Arman,الأرمن,,,,,2016-09-05,,,SY0400046
Syrian Arab Republic,الجمهورية العربية السورية,SY,Homs,حمص,SY04,Homs,مركز حمص,SY0401,Homs,مركز حمص,SY040100,Homs,حمص,C2528,<Null>,<Null>,<Null>,Hameidiyyeh,الحميدية,N0249,Hameidiyyeh (Homs),الحميدية - حمص,,,,,2016-09-05,,,SY0400051
Syrian Arab Republic,الجمهورية العربية السورية,SY,Homs,حمص,SY04,Homs,مركز حمص,SY0401,Homs,مركز حمص,SY040100,Homs,حمص,C2528,<Null>,<Null>,<Null>,Khalidiyah,خالدية,N0239,Khalidiyah (Homs),خالدية - حمص,,,,,2016-09-05,,,SY0400052
Syrian Arab Republic,الجمهورية العربية السورية,SY,Homs,حمص,SY04,Homs,مركز حمص,SY0401,Homs,مركز حمص,SY040100,Homs,حمص,C2528,<Null>,<Null>,<Null>,Jouret Ash-Shayyah,جورة الشياح,N0244,Jouret Ash-Shayyah,جورة الشياح,,,,,2016-09-05,,,SY0400061
Syrian Arab Republic,الجمهورية العربية السورية,SY,Homs,حمص,SY04,Homs,مركز حمص,SY0401,Homs,مركز حمص,SY040100,Homs,حمص,C2528,<Null>,<Null>,<Null>,Qosour,القصور,N0243,Qosour (Homs),القصور - حمص,,,,,2016-09-05,,,SY0400062
Syrian Arab Republic,الجمهورية العربية السورية,SY,Homs,حمص,SY04,Homs,مركز حمص,SY0401,Homs,مركز حمص,SY040100,Homs,حمص,C2528,<Null>,<Null>,<Null>,Bab Houd,باب هود,N0254,Bab Houd,باب هود,,,,,2016-09-05,,,SY0400011
Syrian Arab Republic,الجمهورية العربية السورية,SY,Homs,حمص,SY04,Homs,مركز حمص,SY0401,Homs,مركز حمص,SY040100,Homs,حمص,C2528,<Null>,<Null>,<Null>,Mahatta,المحطة,N0259,Mahatta (Homs),المحطة - حمص,,,,,2016-09-05,,,SY0400012
Syrian Arab Republic,الجمهورية العربية السورية,SY,Homs,حمص,SY04,Homs,مركز حمص,SY0401,Homs,مركز حمص,SY040100,Homs,حمص,C2528,<Null>,<Null>,<Null>,Boghtasiyyah,البغطاسية,N0251,Boghtasiyah,البغطاسية,,,,,2016-09-05,,,SY0400013
Syrian Arab Republic,الجمهورية العربية السورية,SY,Homs,حمص,SY04,Homs,مركز حمص,SY0401,Homs,مركز حمص,SY040100,Homs,حمص,C2528,<Null>,<Null>,<Null>,Ghota,الغوطة,N0250,Ghota,الغوطة,,,,,2016-09-05,,,SY0400014
Syrian Arab Republic,الجمهورية العربية السورية,SY,Homs,حمص,SY04,Homs,مركز حمص,SY0401,Homs,مركز حمص,SY040100,Homs,حمص,C2528,<Null>,<Null>,<Null>,Fardos,الفردوس,N0262,Fardos (Homs),الفردوس - حمص,,,,,2016-09-05,,,SY0400015
Syrian Arab Republic,الجمهورية العربية السورية,SY,Homs,حمص,SY04,Homs,مركز حمص,SY0401,Homs,مركز حمص,SY040100,Homs,حمص,C2528,<Null>,<Null>,<Null>,Bani Sbaie,بني السباعي,N0255,Bani Sbaie,بني السباعي,,,,,2016-09-05,,,SY0400021
Syrian Arab Republic,الجمهورية العربية السورية,SY,Homs,حمص,SY04,Homs,مركز حمص,SY0401,Homs,مركز حمص,SY040100,Homs,حمص,C2528,<Null>,<Null>,<Null>,Bab As-Siba',باب السباع,N0260,Bab As-Sebaa,باب السباع,,,,,2016-09-05,,,SY0400022
Syrian Arab Republic,الجمهورية العربية السورية,SY,Homs,حمص,SY04,Homs,مركز حمص,SY0401,Homs,مركز حمص,SY040100,Homs,حمص,C2528,<Null>,<Null>,<Null>,Khidr,الخضر,N0263,Khidr,الخضر,,,,,2016-09-05,,,SY0400023
Syrian Arab Republic,الجمهورية العربية السورية,SY,Homs,حمص,SY04,Homs,مركز حمص,SY0401,Homs,مركز حمص,SY040100,Homs,حمص,C2528,<Null>,<Null>,<Null>,Karm Ash-Shami,كرم الشامي,N0270,Karm Ash-Shami,كرم الشامي,,,,,2016-09-05,,,SY0400025
Syrian Arab Republic,الجمهورية العربية السورية,SY,Homs,حمص,SY04,Homs,مركز حمص,SY0401,Homs,مركز حمص,SY040100,Homs,حمص,C2528,<Null>,<Null>,<Null>,Bab Ad-Draib,باب الدريب,N0256,Bab Ad-Draib,باب الدريب,,,,,2016-09-05,,,SY0400031
Syrian Arab Republic,الجمهورية العربية السورية,SY,Homs,حمص,SY04,Homs,مركز حمص,SY0401,Homs,مركز حمص,SY040100,Homs,حمص,C2528,<Null>,<Null>,<Null>,Jamal Ad-Dein,جمال الدين,N0257,Jamal Ad-Dein,جمال الدين,,,,,2016-09-05,,,SY0400032
Syrian Arab Republic,الجمهورية العربية السورية,SY,Homs,حمص,SY04,Homs,مركز حمص,SY0401,Homs,مركز حمص,SY040100,Homs,حمص,C2528,<Null>,<Null>,<Null>,Jeb Aj-Jandali,جب الجندلي,N0258,Jeb Aj-Jandali,جب الجندلي,,,,,2016-09-05,,,SY0400033
Syrian Arab Republic,الجمهورية العربية السورية,SY,Homs,حمص,SY04,Homs,مركز حمص,SY0401,Homs,مركز حمص,SY040100,Homs,حمص,C2528,<Null>,<Null>,<Null>,Mraijeh,المريجة,N0261,Mraijeh,المريجة,,,,,2016-09-05,,,SY0400034
Syrian Arab Republic,الجمهورية العربية السورية,SY,Homs,حمص,SY04,Homs,مركز حمص,SY0401,Homs,مركز حمص,SY040100,Homs,حمص,C2528,<Null>,<Null>,<Null>,Nuzha,النزهة,N0265,Nuzha (Homs),النزهة - حمص,,,,,2016-09-05,,,SY0400035
Syrian Arab Republic,الجمهورية العربية السورية,SY,Homs,حمص,SY04,Homs,مركز حمص,SY0401,Homs,مركز حمص,SY040100,Homs,حمص,C2528,<Null>,<Null>,<Null>,Karm Az-Zeitoun,كرم الزيتون,N0264,Karm Az-Zeitoun,كرم الزيتون,,,,,2016-09-05,,,SY0400037
Syrian Arab Republic,الجمهورية العربية السورية,SY,Homs,حمص,SY04,Homs,مركز حمص,SY0401,Homs,مركز حمص,SY040100,Homs,حمص,C2528,<Null>,<Null>,<Null>,Bab Tadmor,باب تدمر,N0252,Bab Tadmor,باب تدمر,,,,,2016-09-05,,,SY0400041
Syrian Arab Republic,الجمهورية العربية السورية,SY,Homs,حمص,SY04,Homs,مركز حمص,SY0401,Homs,مركز حمص,SY040100,Homs,حمص,C2528,<Null>,<Null>,<Null>,Hasaweyyah,الحصوية,N0238,Hasaweyyah,الحصوية,,,,,2016-09-05,,,SY0400063
Syrian Arab Republic,الجمهورية العربية السورية,SY,Homs,حمص,SY04,Homs,مركز حمص,SY0401,Homs,مركز حمص,SY040100,Homs,حمص,C2528,<Null>,<Null>,<Null>,Mimas,الميماس,N0242,Mimas,الميماس,,,,,2016-09-05,,,SY0400071
Syrian Arab Republic,الجمهورية العربية السورية,SY,Homs,حمص,SY04,Homs,مركز حمص,SY0401,Homs,مركز حمص,SY040100,Homs,حمص,C2528,<Null>,<Null>,<Null>,Wa'er,الوعر,N0246,Waer,الوعر,,,,,2016-09-05,,,SY0400072
Syrian Arab Republic,الجمهورية العربية السورية,SY,Homs,حمص,SY04,Homs,مركز حمص,SY0401,Homs,مركز حمص,SY040100,Homs,حمص,C2528,<Null>,<Null>,<Null>,Deir Ba'alba Shamali,دير بعلبة الشمالي,N0237,Deir Baalba Shamali,دير بعلبة الشمالي,,,,,2016-09-05,,,SY0400081
Syrian Arab Republic,الجمهورية العربية السورية,SY,Homs,حمص,SY04,Homs,مركز حمص,SY0401,Homs,مركز حمص,SY040100,Homs,حمص,C2528,<Null>,<Null>,<Null>,Deir Ba'alba Janoubi,دير بعلبة الجنوبي,N0241,Deir Baalba Janoubi,دير بعلبة الجنوبي,,,,,2016-09-05,,,SY0400082
Syrian Arab Republic,الجمهورية العربية السورية,SY,Aleppo,حلب,SY02,Jebel Saman,جبل سمعان,SY0200,Jebel Saman,مركز جبل سمعان,SY020000,Aleppo,حلب,C1007,<Null>,<Null>,<Null>,Ayn At-Tal,عين التل,N0120,Ayn At-Tal,عين التل,,,,,2016-09-05,,,SY0200097
Syrian Arab Republic,الجمهورية العربية السورية,SY,Aleppo,حلب,SY02,Jebel Saman,جبل سمعان,SY0200,Jebel Saman,مركز جبل سمعان,SY020000,Aleppo,حلب,C1007,<Null>,<Null>,<Null>,Hanano,هنانو,N0129,Hanano,هنانو,,,,,2016-09-05,,,SY0200163
Syrian Arab Republic,الجمهورية العربية السورية,SY,Aleppo,حلب,SY02,Jebel Saman,جبل سمعان,SY0200,Jebel Saman,مركز جبل سمعان,SY020000,Aleppo,حلب,C1007,<Null>,<Null>,<Null>,Jabal Badro,جبل بدرو,N0146,Jabal Badro,جبل بدرو,,,,,2016-09-05,,,SY0200161
Syrian Arab Republic,الجمهورية العربية السورية,SY,Aleppo,حلب,SY02,Jebel Saman,جبل سمعان,SY0200,Jebel Saman,مركز جبل سمعان,SY020000,Aleppo,حلب,C1007,<Null>,<Null>,<Null>,Al-Basel,الباسل,N0162,Al-Basel,الباسل,,,,,2016-09-05,,,new
Syrian Arab Republic,الجمهورية العربية السورية,SY,Aleppo,حلب,SY02,Jebel Saman,جبل سمعان,SY0200,Jebel Saman,مركز جبل سمعان,SY020000,Aleppo,حلب,C1007,<Null>,<Null>,<Null>,Al-Sakhour,الصاخور,N0139,Al-Sakhour,الصاخور,,,,,2016-09-05,,,SY0200091
Syrian Arab Republic,الجمهورية العربية السورية,SY,Aleppo,حلب,SY02,Jebel Saman,جبل سمعان,SY0200,Jebel Saman,مركز جبل سمعان,SY020000,Aleppo,حلب,C1007,<Null>,<Null>,<Null>,Bab Qinnesrine,باب قنيصرين,N0200,Bab Qinnesrine,باب قنيصرين,,,,,2016-09-05,,,SY0200018
Syrian Arab Republic,الجمهورية العربية السورية,SY,Aleppo,حلب,SY02,Jebel Saman,جبل سمعان,SY0200,Jebel Saman,مركز جبل سمعان,SY020000,Aleppo,حلب,C1007,<Null>,<Null>,<Null>,Altunbogha,التونبوغا,N0192,Altunbogha,التونبوغا,,,,,2016-09-05,,,SY0200015
Syrian Arab Republic,الجمهورية العربية السورية,SY,Aleppo,حلب,SY02,Jebel Saman,جبل سمعان,SY0200,Jebel Saman,مركز جبل سمعان,SY020000,Aleppo,حلب,C1007,<Null>,<Null>,<Null>,Kallaseh,كلاسة,N0197,Kallaseh,كلاسة,,,,,2016-09-05,,,SY0200053
Syrian Arab Republic,الجمهورية العربية السورية,SY,Aleppo,حلب,SY02,Jebel Saman,جبل سمعان,SY0200,Jebel Saman,مركز جبل سمعان,SY020000,Aleppo,حلب,C1007,<Null>,<Null>,<Null>,Bustan Al-Qaser,بستان القصر,N0204,Bustan Al-Qaser,بستان القصر,,,,,2016-09-05,,,SY0200054
Syrian Arab Republic,الجمهورية العربية السورية,SY,Aleppo,حلب,SY02,Jebel Saman,جبل سمعان,SY0200,Jebel Saman,مركز جبل سمعان,SY020000,Aleppo,حلب,C1007,<Null>,<Null>,<Null>,Bustan Az-Zahra,بستان الزهرة,N0193,Bustan Az-Zahra,بستان الزهرة,,,,,2016-09-05,,,SY0200055
Syrian Arab Republic,الجمهورية العربية السورية,SY,Aleppo,حلب,SY02,Jebel Saman,جبل سمعان,SY0200,Jebel Saman,مركز جبل سمعان,SY020000,Aleppo,حلب,C1007,<Null>,<Null>,<Null>,Masharqa,مشارقة,N0182,Masharqa,مشارقة,,,,,2016-09-05,,,SY0200052
Syrian Arab Republic,الجمهورية العربية السورية,SY,Aleppo,حلب,SY02,Jebel Saman,جبل سمعان,SY0200,Jebel Saman,مركز جبل سمعان,SY020000,Aleppo,حلب,C1007,<Null>,<Null>,<Null>,Jamiliyeh,جميلية,N0161,Jamiliyeh,جميلية,,,,,2016-09-05,,,SY0200051
Syrian Arab Republic,الجمهورية العربية السورية,SY,Aleppo,حلب,SY02,Jebel Saman,جبل سمعان,SY0200,Jebel Saman,مركز جبل سمعان,SY020000,Aleppo,حلب,C1007,<Null>,<Null>,<Null>,Al-Feid,الفيض,N0173,Al-Feid,الفيض,,,,,2016-09-05,,,SY0200056
Syrian Arab Republic,الجمهورية العربية السورية,SY,Aleppo,حلب,SY02,Jebel Saman,جبل سمعان,SY0200,Jebel Saman,مركز جبل سمعان,SY020000,Aleppo,حلب,C1007,<Null>,<Null>,<Null>,A'aziziyeh,العزيزية,N0160,Aaziziyeh,العزيزية,,,,,2016-09-05,,,SY0200042
Syrian Arab Republic,الجمهورية العربية السورية,SY,Aleppo,حلب,SY02,Jebel Saman,جبل سمعان,SY0200,Jebel Saman,مركز جبل سمعان,SY020000,Aleppo,حلب,C1007,<Null>,<Null>,<Null>,Ourubah,عروبة,N0149,Ourubah,عروبة,,,,,2016-09-05,,,SY0200049
Syrian Arab Republic,الجمهورية العربية السورية,SY,Aleppo,حلب,SY02,Jebel Saman,جبل سمعان,SY0200,Jebel Saman,مركز جبل سمعان,SY020000,Aleppo,حلب,C1007,<Null>,<Null>,<Null>,Suleimaniyeh,السليمانية,N0140,Suleimaniyeh,السليمانية,,,,,2016-09-05,,,SY0200102
Syrian Arab Republic,الجمهورية العربية السورية,SY,Aleppo,حلب,SY02,Jebel Saman,جبل سمعان,SY0200,Jebel Saman,مركز جبل سمعان,SY020000,Aleppo,حلب,C1007,<Null>,<Null>,<Null>,Beit Meheb / Jdeydeh,بيت محب/ جديدة,N0163,Beit Meheb / Jdeydeh,بيت محب/ جديدة,,,,,2016-09-05,,,SY0200043
Syrian Arab Republic,الجمهورية العربية السورية,SY,Aleppo,حلب,SY02,Jebel Saman,جبل سمعان,SY0200,Jebel Saman,مركز جبل سمعان,SY020000,Aleppo,حلب,C1007,<Null>,<Null>,<Null>,Qastal Mosht,قصطل مشط,N0165,Qastal Mosht,قصطل مشط,,,,,2016-09-05,,,SY0200044
Syrian Arab Republic,الجمهورية العربية السورية,SY,Aleppo,حلب,SY02,Jebel Saman,جبل سمعان,SY0200,Jebel Saman,مركز جبل سمعان,SY020000,Aleppo,حلب,C1007,<Null>,<Null>,<Null>,Al-Hazzazeh,الهزازة,N0154,Al-Hazzazeh,الهزازة,,,,,2016-09-05,,,SY0200048
Syrian Arab Republic,الجمهورية العربية السورية,SY,Aleppo,حلب,SY02,Jebel Saman,جبل سمعان,SY0200,Jebel Saman,مركز جبل سمعان,SY020000,Aleppo,حلب,C1007,<Null>,<Null>,<Null>,Hameidiyyeh,الحميدية,N0150,Hameidiyyeh (Aleppo),الحميدية - حلب,,,,,2016-09-05,,,SY0200047
Syrian Arab Republic,الجمهورية العربية السورية,SY,Aleppo,حلب,SY02,Jebel Saman,جبل سمعان,SY0200,Jebel Saman,مركز جبل سمعان,SY020000,Aleppo,حلب,C1007,<Null>,<Null>,<Null>,Almaji,الألمه جي,N0158,Almaji,الألمه جي,,,,,2016-09-05,,,SY0200046
Syrian Arab Republic,الجمهورية العربية السورية,SY,Aleppo,حلب,SY02,Jebel Saman,جبل سمعان,SY0200,Jebel Saman,مركز جبل سمعان,SY020000,Aleppo,حلب,C1007,<Null>,<Null>,<Null>,Jabriyeh,جابرية,N0145,Jabriyeh,جابرية,,,,,2016-09-05,,,SY0200103
Syrian Arab Republic,الجمهورية العربية السورية,SY,Aleppo,حلب,SY02,Jebel Saman,جبل سمعان,SY0200,Jebel Saman,مركز جبل سمعان,SY020000,Aleppo,حلب,C1007,<Null>,<Null>,<Null>,Sheikh Abu Bakr,شيخ أبو بكر,N0147,Sheikh Abu Bakr,شيخ أبو بكر,,,,,2016-09-05,,,SY0200108
Syrian Arab Republic,الجمهورية العربية السورية,SY,Aleppo,حلب,SY02,Jebel Saman,جبل سمعان,SY0200,Jebel Saman,مركز جبل سمعان,SY020000,Aleppo,حلب,C1007,<Null>,<Null>,<Null>,Midan,الميدان,N0138,Midan,الميدان,,,,,2016-09-05,,,SY0200101
Syrian Arab Republic,الجمهورية العربية السورية,SY,Aleppo,حلب,SY02,Jebel Saman,جبل سمعان,SY0200,Jebel Saman,مركز جبل سمعان,SY020000,Aleppo,حلب,C1007,<Null>,<Null>,<Null>,Al-A'arqoub,العرقوب,N0148,Al-Aarqoub,العرقوب,,,,,2016-09-05,,,new
Syrian Arab Republic,الجمهورية العربية السورية,SY,Aleppo,حلب,SY02,Jebel Saman,جبل سمعان,SY0200,Jebel Saman,مركز جبل سمعان,SY020000,Aleppo,حلب,C1007,<Null>,<Null>,<Null>,Sulieman Al-Halbi,سليمان الحلبي,N0142,Sulieman Al-Halbi,سليمان الحلبي,,,,,2016-09-05,,,SY0200104
Syrian Arab Republic,الجمهورية العربية السورية,SY,Aleppo,حلب,SY02,Jebel Saman,جبل سمعان,SY0200,Jebel Saman,مركز جبل سمعان,SY020000,Aleppo,حلب,C1007,<Null>,<Null>,<Null>,Bostan Bash,بستان الباشا,N0130,Bostan Bash,بستان الباشا,,,,,2016-09-05,,,SY0200105
Syrian Arab Republic,الجمهورية العربية السورية,SY,Aleppo,حلب,SY02,Jebel Saman,جبل سمعان,SY0200,Jebel Saman,مركز جبل سمعان,SY020000,Aleppo,حلب,C1007,<Null>,<Null>,<Null>,Aghyol,أغيول,N0155,Aghyol,أغيول,,,,,2016-09-05,,,SY0200045
Syrian Arab Republic,الجمهورية العربية السورية,SY,Aleppo,حلب,SY02,Jebel Saman,جبل سمعان,SY0200,Jebel Saman,مركز جبل سمعان,SY020000,Aleppo,حلب,C1007,<Null>,<Null>,<Null>,Ad-Dudu,الضوضو,N0188,Ad-Dudu,الضوضو,,,,,2016-09-05,,,SY0200032
Syrian Arab Republic,الجمهورية العربية السورية,SY,Aleppo,حلب,SY02,Jebel Saman,جبل سمعان,SY0200,Jebel Saman,مركز جبل سمعان,SY020000,Aleppo,حلب,C1007,<Null>,<Null>,<Null>,Al-Ballat,البلاط,N0191,Al-Ballat,البلاط,,,,,2016-09-05,,,SY0200033
Syrian Arab Republic,الجمهورية العربية السورية,SY,Aleppo,حلب,SY02,Jebel Saman,جبل سمعان,SY0200,Jebel Saman,مركز جبل سمعان,SY020000,Aleppo,حلب,C1007,<Null>,<Null>,<Null>,Abraj,أبراج,N0171,Abraj,أبراج,,,,,2016-09-05,,,SY0200031
Syrian Arab Republic,الجمهورية العربية السورية,SY,Aleppo,حلب,SY02,Jebel Saman,جبل سمعان,SY0200,Jebel Saman,مركز جبل سمعان,SY020000,Aleppo,حلب,C1007,<Null>,<Null>,<Null>,Sajilikhan,صاجيليخان,N0180,Sajilikhan,صاجيليخان,,,,,2016-09-05,,,SY0200034
Syrian Arab Republic,الجمهورية العربية السورية,SY,Aleppo,حلب,SY02,Jebel Saman,جبل سمعان,SY0200,Jebel Saman,مركز جبل سمعان,SY020000,Aleppo,حلب,C1007,<Null>,<Null>,<Null>,Ibn Ya'aqoub,ابن يعقوب,N0166,Ibn Yaaqoub,ابن يعقوب,,,,,2016-09-05,,,SY0200037
Syrian Arab Republic,الجمهورية العربية السورية,SY,Aleppo,حلب,SY02,Jebel Saman,جبل سمعان,SY0200,Jebel Saman,مركز جبل سمعان,SY020000,Aleppo,حلب,C1007,<Null>,<Null>,<Null>,Ad-Dallain,"الدلالين
الدلالين
الدلالين",N0164,Ad-Dallain,الدلالين,,,,,2016-09-05,,,SY0200037
Syrian Arab Republic,الجمهورية العربية السورية,SY,Aleppo,حلب,SY02,Jebel Saman,جبل سمعان,SY0200,Jebel Saman,مركز جبل سمعان,SY020000,Aleppo,حلب,C1007,<Null>,<Null>,<Null>,Tatarlar,تاترلار,N0167,Tatarlar,تاترلار,,,,,2016-09-05,,,SY0200036
Syrian Arab Republic,الجمهورية العربية السورية,SY,Aleppo,حلب,SY02,Jebel Saman,جبل سمعان,SY0200,Jebel Saman,مركز جبل سمعان,SY020000,Aleppo,حلب,C1007,<Null>,<Null>,<Null>,Karm Al-Qaterji,كرم القاطرجي,N0177,Karm Al-Qaterji,كرم القاطرجي,,,,,2016-09-05,,,SY0200081
Syrian Arab Republic,الجمهورية العربية السورية,SY,Aleppo,حلب,SY02,Jebel Saman,جبل سمعان,SY0200,Jebel Saman,مركز جبل سمعان,SY020000,Aleppo,حلب,C1007,<Null>,<Null>,<Null>,Karm Homed,كرم حومد,N0196,Karm Homed,كرم حومد,,,,,2016-09-05,,,SY0200081
Syrian Arab Republic,الجمهورية العربية السورية,SY,Aleppo,حلب,SY02,Jebel Saman,جبل سمعان,SY0200,Jebel Saman,مركز جبل سمعان,SY020000,Aleppo,حلب,C1007,<Null>,<Null>,<Null>,Sha'aar,الشعار,N0156,Shaaar,الشعار,,,,,2016-09-05,,,SY0200082
Syrian Arab Republic,الجمهورية العربية السورية,SY,Aleppo,حلب,SY02,Jebel Saman,جبل سمعان,SY0200,Jebel Saman,مركز جبل سمعان,SY020000,Aleppo,حلب,C1007,<Null>,<Null>,<Null>,Jouret Awwad,جورة عواد,N0168,Jouret Awwad,جورة عواد,,,,,2016-09-05,,,SY0200083
Syrian Arab Republic,الجمهورية العربية السورية,SY,Aleppo,حلب,SY02,Jebel Saman,جبل سمعان,SY0200,Jebel Saman,مركز جبل سمعان,SY020000,Aleppo,حلب,C1007,<Null>,<Null>,<Null>,Qarleq,قرلق,N0159,Qarleq,قرلق,,,,,2016-09-05,,,SY0200038
Syrian Arab Republic,الجمهورية العربية السورية,SY,Aleppo,حلب,SY02,Jebel Saman,جبل سمعان,SY0200,Jebel Saman,مركز جبل سمعان,SY020000,Aleppo,حلب,C1007,<Null>,<Null>,<Null>,Karm Al-Jabal,كرم الجبل,N0152,Karm Al-Jabal,كرم الجبل,,,,,2016-09-05,,,SY0200109
Syrian Arab Republic,الجمهورية العربية السورية,SY,Aleppo,حلب,SY02,Jebel Saman,جبل سمعان,SY0200,Jebel Saman,مركز جبل سمعان,SY020000,Aleppo,حلب,C1007,<Null>,<Null>,<Null>,Helwaniyeh,حلوانية,N0157,Helwaniyeh,حلوانية,,,,,2016-09-05,,,SY0200085
Syrian Arab Republic,الجمهورية العربية السورية,SY,Aleppo,حلب,SY02,Jebel Saman,جبل سمعان,SY0200,Jebel Saman,مركز جبل سمعان,SY020000,Aleppo,حلب,C1007,<Null>,<Null>,<Null>,Dahert Awwad,ضهرة عواد,N0179,Dahert Awwad,ضهرة عواد,,,,,2016-09-05,,,SY0200086
Syrian Arab Republic,الجمهورية العربية السورية,SY,Aleppo,حلب,SY02,Jebel Saman,جبل سمعان,SY0200,Jebel Saman,مركز جبل سمعان,SY020000,Aleppo,حلب,C1007,<Null>,<Null>,<Null>,Karm Myassar,كرم ميسر,N0194,Karm Myassar,كرم ميسر,,,,,2016-09-05,,,SY0200084
Syrian Arab Republic,الجمهورية العربية السورية,SY,Aleppo,حلب,SY02,Jebel Saman,جبل سمعان,SY0200,Jebel Saman,مركز جبل سمعان,SY020000,Aleppo,حلب,C1007,<Null>,<Null>,<Null>,Karm Al-Jazmati,كرم الجزماتي,N0187,Karm Al-Jazmati,كرم الجزماتي,,,,,2016-09-05,,,SY0200084
Syrian Arab Republic,الجمهورية العربية السورية,SY,Aleppo,حلب,SY02,Jebel Saman,جبل سمعان,SY0200,Jebel Saman,مركز جبل سمعان,SY020000,Aleppo,حلب,C1007,<Null>,<Null>,<Null>,Ma'asaraniyeh Youth Housing,سكن شبابي معصرانيه,N0183,Maasaraniyeh Youth Housing,سكن شبابي معصرانيه,,,,,2016-09-05,,,SY0200084
Syrian Arab Republic,الجمهورية العربية السورية,SY,Aleppo,حلب,SY02,Jebel Saman,جبل سمعان,SY0200,Jebel Saman,مركز جبل سمعان,SY020000,Aleppo,حلب,C1007,<Null>,<Null>,<Null>,Qadi Askar,قاضي عسكر,N0174,Qadi Askar,قاضي عسكر,,,,,2016-09-05,,,SY0200035
Syrian Arab Republic,الجمهورية العربية السورية,SY,Aleppo,حلب,SY02,Jebel Saman,جبل سمعان,SY0200,Jebel Saman,مركز جبل سمعان,SY020000,Aleppo,حلب,C1007,<Null>,<Null>,<Null>,Bab Al-Maqam,باب المقام,N0207,Bab Al-Maqam,باب المقام,,,,,2016-09-05,,,SY0200022
Syrian Arab Republic,الجمهورية العربية السورية,SY,Aleppo,حلب,SY02,Jebel Saman,جبل سمعان,SY0200,Jebel Saman,مركز جبل سمعان,SY020000,Aleppo,حلب,C1007,<Null>,<Null>,<Null>,Karm Ad-Da'da'a,كرم الدعدع,N0217,Karm Ad-Dadaa,كرم الدعدع,,,,,2016-09-05,,,SY0200073
Syrian Arab Republic,الجمهورية العربية السورية,SY,Aleppo,حلب,SY02,Jebel Saman,جبل سمعان,SY0200,Jebel Saman,مركز جبل سمعان,SY020000,Aleppo,حلب,C1007,<Null>,<Null>,<Null>,Fardos,فردوس,N0209,Fardos,فردوس,,,,,2016-09-05,,,SY0200023
Syrian Arab Republic,الجمهورية العربية السورية,SY,Aleppo,حلب,SY02,Jebel Saman,جبل سمعان,SY0200,Jebel Saman,مركز جبل سمعان,SY020000,Aleppo,حلب,C1007,<Null>,<Null>,<Null>,Maqar Al-Anbiya'a,مقر الأنبياء,N0210,Maqar Al-Anbiyaa,مقر الأنبياء,,,,,2016-09-05,,,SY0200071
Syrian Arab Republic,الجمهورية العربية السورية,SY,Aleppo,حلب,SY02,Jebel Saman,جبل سمعان,SY0200,Jebel Saman,مركز جبل سمعان,SY020000,Aleppo,حلب,C1007,<Null>,<Null>,<Null>,Marjeh,مرجة,N0213,Marjeh,مرجة,,,,,2016-09-05,,,SY0200071
Syrian Arab Republic,الجمهورية العربية السورية,SY,Aleppo,حلب,SY02,Jebel Saman,جبل سمعان,SY0200,Jebel Saman,مركز جبل سمعان,SY020000,Aleppo,حلب,C1007,<Null>,<Null>,<Null>,Al-Nayrab,النيرب,N0223,Al-Nayrab,النيرب,,,,,2016-09-05,,,SY0200155
Syrian Arab Republic,الجمهورية العربية السورية,SY,Aleppo,حلب,SY02,Jebel Saman,جبل سمعان,SY0200,Jebel Saman,مركز جبل سمعان,SY020000,Aleppo,حلب,C1007,<Null>,<Null>,<Null>,Industrial Area in Jibreen,منطقة صناعية جبرين,N0206,Industrial Area in Jibreen,منطقة صناعية جبرين,,,,,2016-09-05,,,SY0200154
Syrian Arab Republic,الجمهورية العربية السورية,SY,Aleppo,حلب,SY02,Jebel Saman,جبل سمعان,SY0200,Jebel Saman,مركز جبل سمعان,SY020000,Aleppo,حلب,C1007,<Null>,<Null>,<Null>,Jibreen,جبرين,N0212,Jibreen,جبرين,,,,,2016-09-05,,,new
Syrian Arab Republic,الجمهورية العربية السورية,SY,Aleppo,حلب,SY02,Jebel Saman,جبل سمعان,SY0200,Jebel Saman,مركز جبل سمعان,SY020000,Aleppo,حلب,C1007,<Null>,<Null>,<Null>,Sheikh Said,شيخ سعيد,N0225,Sheikh Said,شيخ سعيد,,,,,2016-09-05,,,SY0200074
Syrian Arab Republic,الجمهورية العربية السورية,SY,Aleppo,حلب,SY02,Jebel Saman,جبل سمعان,SY0200,Jebel Saman,مركز جبل سمعان,SY020000,Aleppo,حلب,C1007,<Null>,<Null>,<Null>,Salheen,صالحين,N0211,Salheen,صالحين,,,,,2016-09-05,,,SY0200072
Syrian Arab Republic,الجمهورية العربية السورية,SY,Aleppo,حلب,SY02,Jebel Saman,جبل سمعان,SY0200,Jebel Saman,مركز جبل سمعان,SY020000,Aleppo,حلب,C1007,<Null>,<Null>,<Null>,Muhamad Bek,محمد بك,N0205,Muhamad Bek,محمد بك,,,,,2016-09-05,,,SY0200021
Syrian Arab Republic,الجمهورية العربية السورية,SY,Aleppo,حلب,SY02,Jebel Saman,جبل سمعان,SY0200,Jebel Saman,مركز جبل سمعان,SY020000,Aleppo,حلب,C1007,<Null>,<Null>,<Null>,Al-Ansari,الأنصاري,N0195,Al-Ansari,الأنصاري - حلب,,,,,2016-09-05,,,SY0200061
Syrian Arab Republic,الجمهورية العربية السورية,SY,Aleppo,حلب,SY02,Jebel Saman,جبل سمعان,SY0200,Jebel Saman,مركز جبل سمعان,SY020000,Aleppo,حلب,C1007,<Null>,<Null>,<Null>,Az-Ziebdiyeh,الزبدية,N0208,Az-Ziebdiyeh,الزبدية,,,,,2016-09-05,,,SY0200063
Syrian Arab Republic,الجمهورية العربية السورية,SY,Aleppo,حلب,SY02,Jebel Saman,جبل سمعان,SY0200,Jebel Saman,مركز جبل سمعان,SY020000,Aleppo,حلب,C1007,<Null>,<Null>,<Null>,East Al-Ansari,الأنصاري شرقي,N0215,East Al-Ansari,الأنصاري شرقي,,,,,2016-09-05,,,SY0200063
Syrian Arab Republic,الجمهورية العربية السورية,SY,Aleppo,حلب,SY02,Jebel Saman,جبل سمعان,SY0200,Jebel Saman,مركز جبل سمعان,SY020000,Aleppo,حلب,C1007,<Null>,<Null>,<Null>,As-Sukkari,السكري,N0219,As-Sukkari,السكري,,,,,2016-09-05,,,SY0200067
Syrian Arab Republic,الجمهورية العربية السورية,SY,Aleppo,حلب,SY02,Jebel Saman,جبل سمعان,SY0200,Jebel Saman,مركز جبل سمعان,SY020000,Aleppo,حلب,C1007,<Null>,<Null>,<Null>,Al-Ansari Mashhad,الأنصاري مشهد,N0218,Al-Ansari Mashhad,الأنصاري مشهد,,,,,2016-09-05,,,SY0200063
Syrian Arab Republic,الجمهورية العربية السورية,SY,Aleppo,حلب,SY02,Jebel Saman,جبل سمعان,SY0200,Jebel Saman,مركز جبل سمعان,SY020000,Aleppo,حلب,C1007,<Null>,<Null>,<Null>,Tal Az-Zarazir,تل الزرازير,N0224,Tal Az-Zarazir,تل الزرازير,,,,,2016-09-05,,,SY0200066
Syrian Arab Republic,الجمهورية العربية السورية,SY,Aleppo,حلب,SY02,Jebel Saman,جبل سمعان,SY0200,Jebel Saman,مركز جبل سمعان,SY020000,Aleppo,حلب,C1007,<Null>,<Null>,<Null>,Al-Amerriyah,الأميرية,N0222,Al-Amerriyah,الأميرية,,,,,2016-09-05,,,SY0200065
Syrian Arab Republic,الجمهورية العربية السورية,SY,Aleppo,حلب,SY02,Jebel Saman,جبل سمعان,SY0200,Jebel Saman,مركز جبل سمعان,SY020000,Aleppo,حلب,C1007,<Null>,<Null>,<Null>,Ard As-Sabbagh,أرض الصباغ,N0220,Ard As-Sabbagh,أرض الصباغ,,,,,2016-09-05,,,SY0200065
Syrian Arab Republic,الجمهورية العربية السورية,SY,Aleppo,حلب,SY02,Jebel Saman,جبل سمعان,SY0200,Jebel Saman,مركز جبل سمعان,SY020000,Aleppo,حلب,C1007,<Null>,<Null>,<Null>,Salah Ad-Deen,صلاح الدين,N0214,Salah Ad-Deen,صلاح الدين,,,,,2016-09-05,,,SY0200062
Syrian Arab Republic,الجمهورية العربية السورية,SY,Aleppo,حلب,SY02,Jebel Saman,جبل سمعان,SY0200,Jebel Saman,مركز جبل سمعان,SY020000,Aleppo,حلب,C1007,<Null>,<Null>,<Null>,Sayf Ad-Dauleh,سيف الدولة,N0203,Sayf Ad-Dauleh,سيف الدولة,,,,,2016-09-05,,,SY0200061
Syrian Arab Republic,الجمهورية العربية السورية,SY,Aleppo,حلب,SY02,Jebel Saman,جبل سمعان,SY0200,Jebel Saman,مركز جبل سمعان,SY020000,Aleppo,حلب,C1007,<Null>,<Null>,<Null>,Al-A'zamiyeh,الأعظمية,N0202,Al-Azamiyeh,الأعظمية,,,,,2016-09-05,,,SY0200062
Syrian Arab Republic,الجمهورية العربية السورية,SY,Aleppo,حلب,SY02,Jebel Saman,جبل سمعان,SY0200,Jebel Saman,مركز جبل سمعان,SY020000,Aleppo,حلب,C1007,<Null>,<Null>,<Null>,Hamadaniyeh,الحمدانية,N0216,Hamadaniyeh (Aleppo),الحمدانية - حلب,,,,,2016-09-05,,,SY0200141
Syrian Arab Republic,الجمهورية العربية السورية,SY,Aleppo,حلب,SY02,Jebel Saman,جبل سمعان,SY0200,Jebel Saman,مركز جبل سمعان,SY020000,Aleppo,حلب,C1007,<Null>,<Null>,<Null>,Tishrine,تشرين,N0221,Tishrine (Aleppo),تشرين - حلب,,,,,2016-09-05,,,SY0200144
Syrian Arab Republic,الجمهورية العربية السورية,SY,Aleppo,حلب,SY02,Jebel Saman,جبل سمعان,SY0200,Jebel Saman,مركز جبل سمعان,SY020000,Aleppo,حلب,C1007,<Null>,<Null>,<Null>,Ar-Ramouseh Indusrtial District,الراموسة/ المنطقة الصناعية,N0226,Ar-Ramouseh Indusrtial District,الراموسة/ المنطقة الصناعية,,,,,2016-09-05,,,new
Syrian Arab Republic,الجمهورية العربية السورية,SY,Aleppo,حلب,SY02,Jebel Saman,جبل سمعان,SY0200,Jebel Saman,مركز جبل سمعان,SY020000,Aleppo,حلب,C1007,<Null>,<Null>,<Null>,Al-Kawakbi,الكواكبي,N0169,Al-Kawakbi,الكواكبي,,,,,2016-09-05,,,SY0200124
Syrian Arab Republic,الجمهورية العربية السورية,SY,Aleppo,حلب,SY02,Jebel Saman,جبل سمعان,SY0200,Jebel Saman,مركز جبل سمعان,SY020000,Aleppo,حلب,C1007,<Null>,<Null>,<Null>,Al-Furqan,الفرقان,N0176,Al-Furqan,الفرقان,,,,,2016-09-05,,,new
Syrian Arab Republic,الجمهورية العربية السورية,SY,Aleppo,حلب,SY02,Jebel Saman,جبل سمعان,SY0200,Jebel Saman,مركز جبل سمعان,SY020000,Aleppo,حلب,C1007,<Null>,<Null>,<Null>,Al-Ghazali,الغزالي,N0181,Al-Ghazali,الغزالي,,,,,2016-09-05,,,new
Syrian Arab Republic,الجمهورية العربية السورية,SY,Aleppo,حلب,SY02,Jebel Saman,جبل سمعان,SY0200,Jebel Saman,مركز جبل سمعان,SY020000,Aleppo,حلب,C1007,<Null>,<Null>,<Null>,University of Aleppo,جامعة حلب,N0153,University of Aleppo,جامعة حلب,,,,,2016-09-05,,,SY0200121
Syrian Arab Republic,الجمهورية العربية السورية,SY,Aleppo,حلب,SY02,Jebel Saman,جبل سمعان,SY0200,Jebel Saman,مركز جبل سمعان,SY020000,Aleppo,حلب,C1007,<Null>,<Null>,<Null>,Al-Mohafaza,المحافظة,N0151,Al-Mohafaza,المحافظة,,,,,2016-09-05,,,SY0200121
Syrian Arab Republic,الجمهورية العربية السورية,SY,Aleppo,حلب,SY02,Jebel Saman,جبل سمعان,SY0200,Jebel Saman,مركز جبل سمعان,SY020000,Aleppo,حلب,C1007,<Null>,<Null>,<Null>,As-Sabil,السبيل,N0143,As-Sabil,السبيل - حلب,,,,,2016-09-05,,,SY0200122
Syrian Arab Republic,الجمهورية العربية السورية,SY,Aleppo,حلب,SY02,Jebel Saman,جبل سمعان,SY0200,Jebel Saman,مركز جبل سمعان,SY020000,Aleppo,حلب,C1007,<Null>,<Null>,<Null>,Ash-Shahba'a,الشهباء,N0144,Shahbaa (Aleppo),الشهباء - حلب,,,,,2016-09-05,,,SY0200123
Syrian Arab Republic,الجمهورية العربية السورية,SY,Aleppo,حلب,SY02,Jebel Saman,جبل سمعان,SY0200,Jebel Saman,مركز جبل سمعان,SY020000,Aleppo,حلب,C1007,<Null>,<Null>,<Null>,Andalus,الأندلس,N0133,Andalus (Aleppo),الأندلس - حلب,,,,,2016-09-05,,,SY0200127
Syrian Arab Republic,الجمهورية العربية السورية,SY,Aleppo,حلب,SY02,Jebel Saman,جبل سمعان,SY0200,Jebel Saman,مركز جبل سمعان,SY020000,Aleppo,حلب,C1007,<Null>,<Null>,<Null>,Nile Street,شارع النيل,N0131,Nile Street,شارع النيل,,,,,2016-09-05,,,SY0200114
Syrian Arab Republic,الجمهورية العربية السورية,SY,Aleppo,حلب,SY02,Jebel Saman,جبل سمعان,SY0200,Jebel Saman,مركز جبل سمعان,SY020000,Aleppo,حلب,C1007,<Null>,<Null>,<Null>,Khaldiyeh,خالدية,N0127,Khalidiyeh (Aleppo),خالدية - حلب,,,,,2016-09-05,,,SY0200115
Syrian Arab Republic,الجمهورية العربية السورية,SY,Aleppo,حلب,SY02,Jebel Saman,جبل سمعان,SY0200,Jebel Saman,مركز جبل سمعان,SY020000,Aleppo,حلب,C1007,<Null>,<Null>,<Null>,Az-Zahraa,الزهراء,N0135,Az-Zahraa,الزهراء - حلب,,,,,2016-09-05,,,SY0200134
Syrian Arab Republic,الجمهورية العربية السورية,SY,Aleppo,حلب,SY02,Jebel Saman,جبل سمعان,SY0200,Jebel Saman,مركز جبل سمعان,SY020000,Aleppo,حلب,C1007,<Null>,<Null>,<Null>,New Aleppo,حلب الجديدة,N0184,New Aleppo,حلب الجديدة,,,,,2016-09-05,,,SY0200125
Syrian Arab Republic,الجمهورية العربية السورية,SY,Aleppo,حلب,SY02,Jebel Saman,جبل سمعان,SY0200,Jebel Saman,مركز جبل سمعان,SY020000,Aleppo,حلب,C1007,<Null>,<Null>,<Null>,Ash-Shuhada,الشهداء,N0172,Ash-Shuhada,الشهداء - حلب,,,,,2016-09-05,,,new
Syrian Arab Republic,الجمهورية العربية السورية,SY,Aleppo,حلب,SY02,Jebel Saman,جبل سمعان,SY0200,Jebel Saman,مركز جبل سمعان,SY020000,Aleppo,حلب,C1007,<Null>,<Null>,<Null>,Syriac Quarter,حي السريان,N0141,Syrian Quarter,حي السريان,,,,,2016-09-05,,,SY0200112
Syrian Arab Republic,الجمهورية العربية السورية,SY,Aleppo,حلب,SY02,Jebel Saman,جبل سمعان,SY0200,Jebel Saman,مركز جبل سمعان,SY020000,Aleppo,حلب,C1007,<Null>,<Null>,<Null>,Tareq Ben Ziad,طارق بن زياد,N0136,Tareq Ben Ziad,طارق بن زياد,,,,,2016-09-05,,,SY0200111
Syrian Arab Republic,الجمهورية العربية السورية,SY,Aleppo,حلب,SY02,Jebel Saman,جبل سمعان,SY0200,Jebel Saman,مركز جبل سمعان,SY020000,Aleppo,حلب,C1007,<Null>,<Null>,<Null>,Zuhour,الزهور,N0137,Zuhour,الزهور - حلب,,,,,2016-09-05,,,SY0200113
Syrian Arab Republic,الجمهورية العربية السورية,SY,Aleppo,حلب,SY02,Jebel Saman,جبل سمعان,SY0200,Jebel Saman,مركز جبل سمعان,SY020000,Aleppo,حلب,C1007,<Null>,<Null>,<Null>,Ashrafiyeh,الأشرفية,N0128,Ashrafiyeh,الأشرفية,,,,,2016-09-05,,,SY0200116
Syrian Arab Republic,الجمهورية العربية السورية,SY,Aleppo,حلب,SY02,Jebel Saman,جبل سمعان,SY0200,Jebel Saman,مركز جبل سمعان,SY020000,Aleppo,حلب,C1007,<Null>,<Null>,<Null>,Rasafeh,رصافة,N0124,Rasafeh,رصافة,,,,,2016-09-05,,,SY0200117
Syrian Arab Republic,الجمهورية العربية السورية,SY,Aleppo,حلب,SY02,Jebel Saman,جبل سمعان,SY0200,Jebel Saman,مركز جبل سمعان,SY020000,Aleppo,حلب,C1007,<Null>,<Null>,<Null>,Youth Housing,السكن الشبابي,N0119,Youth Housing,السكن الشبابي,,,,,2016-09-05,,,SY0200118
Syrian Arab Republic,الجمهورية العربية السورية,SY,Aleppo,حلب,SY02,Jebel Saman,جبل سمعان,SY0200,Jebel Saman,مركز جبل سمعان,SY020000,Aleppo,حلب,C1007,<Null>,<Null>,<Null>,Alleramoon,الليرمون,N0121,Alleramoon,الليرمون,,,,,2016-09-05,,,SY0200131
Syrian Arab Republic,الجمهورية العربية السورية,SY,Aleppo,حلب,SY02,Jebel Saman,جبل سمعان,SY0200,Jebel Saman,مركز جبل سمعان,SY020000,Aleppo,حلب,C1007,<Null>,<Null>,<Null>,Ash-Sheikh Maqsoud,الشيخ مقصود,N0123,Ash-Sheikh Maqsoud,الشيخ مقصود,,,,,2016-09-05,,,SY0200118
Syrian Arab Republic,الجمهورية العربية السورية,SY,Aleppo,حلب,SY02,Jebel Saman,جبل سمعان,SY0200,Jebel Saman,مركز جبل سمعان,SY020000,Aleppo,حلب,C1007,<Null>,<Null>,<Null>,Sheikh Fares,شيخ فارس,N0132,Sheikh Fares,شيخ فارس,,,,,2016-09-05,,,SY0200095
Syrian Arab Republic,الجمهورية العربية السورية,SY,Al-Hasakeh,الحسكة,SY08,Al-Hasakeh,مركز الحسكة,SY0800,Al-Hasakeh,مركز الحسكة,SY080000,Al-Hasakeh,الحسكة,C4360,<Null>,<Null>,<Null>,Al Gazal,الغزل,N0381,Al Gazal,الغزل,,,,,2016-09-05,,,SY0800024
Syrian Arab Republic,الجمهورية العربية السورية,SY,Al-Hasakeh,الحسكة,SY08,Al-Hasakeh,مركز الحسكة,SY0800,Al-Hasakeh,مركز الحسكة,SY080000,Al-Hasakeh,الحسكة,C4360,<Null>,<Null>,<Null>,Al Watani,المشفى الوطني,N0383,Al Watani,المشفى الوطني,,,,,2016-09-05,,,SY0800025
Syrian Arab Republic,الجمهورية العربية السورية,SY,Al-Hasakeh,الحسكة,SY08,Al-Hasakeh,مركز الحسكة,SY0800,Al-Hasakeh,مركز الحسكة,SY080000,Al-Hasakeh,الحسكة,C4360,<Null>,<Null>,<Null>,Matar Shamali,المطار الشمالي,N0382,Matar Shamali,المطار الشمالي,,,,,2016-09-05,,,SY0800012
Syrian Arab Republic,الجمهورية العربية السورية,SY,Al-Hasakeh,الحسكة,SY08,Al-Hasakeh,مركز الحسكة,SY0800,Al-Hasakeh,مركز الحسكة,SY080000,Al-Hasakeh,الحسكة,C4360,<Null>,<Null>,<Null>,Al Matar Janoubi,المطار الجنوبي,N0388,Al Matar Janoubi,المطار الجنوبي,,,,,2016-09-05,,,SY0800014
Syrian Arab Republic,الجمهورية العربية السورية,SY,Al-Hasakeh,الحسكة,SY08,Al-Hasakeh,مركز الحسكة,SY0800,Al-Hasakeh,مركز الحسكة,SY080000,Al-Hasakeh,الحسكة,C4360,<Null>,<Null>,<Null>,Al Askari,العسكري,N0387,Al Askari,العسكري,,,,,2016-09-05,,,SY0800015
Syrian Arab Republic,الجمهورية العربية السورية,SY,Al-Hasakeh,الحسكة,SY08,Al-Hasakeh,مركز الحسكة,SY0800,Al-Hasakeh,مركز الحسكة,SY080000,Al-Hasakeh,الحسكة,C4360,<Null>,<Null>,<Null>,Al Mal'ab Al Baladi,الملعب البلدي,N0385,Al Malab Al Baladi,الملعب البلدي,,,,,2016-09-05,,,SY0800013
Syrian Arab Republic,الجمهورية العربية السورية,SY,Al-Hasakeh,الحسكة,SY08,Al-Hasakeh,مركز الحسكة,SY0800,Al-Hasakeh,مركز الحسكة,SY080000,Al-Hasakeh,الحسكة,C4360,<Null>,<Null>,<Null>,Al Wasati,الوسطي,N0386,Al Wasati,الوسطي,,,,,2016-09-05,,,SY0800011
Syrian Arab Republic,الجمهورية العربية السورية,SY,Al-Hasakeh,الحسكة,SY08,Al-Hasakeh,مركز الحسكة,SY0800,Al-Hasakeh,مركز الحسكة,SY080000,Al-Hasakeh,الحسكة,C4360,<Null>,<Null>,<Null>,Al Thawra,الثورة,N0390,Al Thawra,الثورة - الحسكة,,,,,2016-09-05,,,SY0800031
Syrian Arab Republic,الجمهورية العربية السورية,SY,Al-Hasakeh,الحسكة,SY08,Al-Hasakeh,مركز الحسكة,SY0800,Al-Hasakeh,مركز الحسكة,SY080000,Al-Hasakeh,الحسكة,C4360,<Null>,<Null>,<Null>,16 Tashreen ,16 تشرين,N0392,16 Tashreen ,16 تشرين,,,,,2016-09-05,,,SY0800032
Syrian Arab Republic,الجمهورية العربية السورية,SY,Al-Hasakeh,الحسكة,SY08,Al-Hasakeh,مركز الحسكة,SY0800,Al-Hasakeh,مركز الحسكة,SY080000,Al-Hasakeh,الحسكة,C4360,<Null>,<Null>,<Null>,Al Madina Al Riyadia,المدينة الرياضية,N0394,Al Madina Al Riyadia,المدينة الرياضية,,,,,2016-09-05,,,SY0800034
Syrian Arab Republic,الجمهورية العربية السورية,SY,Al-Hasakeh,الحسكة,SY08,Al-Hasakeh,مركز الحسكة,SY0800,Al-Hasakeh,مركز الحسكة,SY080000,Al-Hasakeh,الحسكة,C4360,<Null>,<Null>,<Null>,Al Takadom,التقدم,N0397,Al Takadom,التقدم,,,,,2016-09-05,,,SY0800033
Syrian Arab Republic,الجمهورية العربية السورية,SY,Al-Hasakeh,الحسكة,SY08,Al-Hasakeh,مركز الحسكة,SY0800,Al-Hasakeh,مركز الحسكة,SY080000,Al-Hasakeh,الحسكة,C4360,<Null>,<Null>,<Null>,Industrial,الصناعي,N0400,Industrial,الصناعي,,,,,2016-09-05,,,SY0800036
Syrian Arab Republic,الجمهورية العربية السورية,SY,Al-Hasakeh,الحسكة,SY08,Al-Hasakeh,مركز الحسكة,SY0800,Al-Hasakeh,مركز الحسكة,SY080000,Al-Hasakeh,الحسكة,C4360,<Null>,<Null>,<Null>,Al Lailia,الليلية,N0395,Al Lailia,الليلية,,,,,2016-09-05,,,SY0800052
Syrian Arab Republic,الجمهورية العربية السورية,SY,Al-Hasakeh,الحسكة,SY08,Al-Hasakeh,مركز الحسكة,SY0800,Al-Hasakeh,مركز الحسكة,SY080000,Al-Hasakeh,الحسكة,C4360,<Null>,<Null>,<Null>,Al Msaken,المساكن,N0391,Al Msaken,المساكن,,,,,2016-09-05,,,SY0800051
Syrian Arab Republic,الجمهورية العربية السورية,SY,Al-Hasakeh,الحسكة,SY08,Al-Hasakeh,مركز الحسكة,SY0800,Al-Hasakeh,مركز الحسكة,SY080000,Al-Hasakeh,الحسكة,C4360,<Null>,<Null>,<Null>,Al Khabour,الخابور,N0389,Al Khabour,الخابور,,,,,2016-09-05,,,SY0800054
Syrian Arab Republic,الجمهورية العربية السورية,SY,Al-Hasakeh,الحسكة,SY08,Al-Hasakeh,مركز الحسكة,SY0800,Al-Hasakeh,مركز الحسكة,SY080000,Al-Hasakeh,الحسكة,C4360,<Null>,<Null>,<Null>,Al Rusafa,الرصافة,N0396,Al Rusafa,الرصافة,,,,,2016-09-05,,,SY0800055
Syrian Arab Republic,الجمهورية العربية السورية,SY,Al-Hasakeh,الحسكة,SY08,Al-Hasakeh,مركز الحسكة,SY0800,Al-Hasakeh,مركز الحسكة,SY080000,Al-Hasakeh,الحسكة,C4360,<Null>,<Null>,<Null>,Al Villat,الفيلات,N0398,Al Villat,الفيلات,,,,,2016-09-05,,,SY0800053
Syrian Arab Republic,الجمهورية العربية السورية,SY,Al-Hasakeh,الحسكة,SY08,Al-Hasakeh,مركز الحسكة,SY0800,Al-Hasakeh,مركز الحسكة,SY080000,Al-Hasakeh,الحسكة,C4360,<Null>,<Null>,<Null>,Abo Amsha,أبو عمشة,N0384,Abo Amsha,أبو عمشة,,,,,2016-09-05,,,SY0800026
Syrian Arab Republic,الجمهورية العربية السورية,SY,Al-Hasakeh,الحسكة,SY08,Al-Hasakeh,مركز الحسكة,SY0800,Al-Hasakeh,مركز الحسكة,SY080000,Al-Hasakeh,الحسكة,C4360,<Null>,<Null>,<Null>,Abo Bakr,أبو بكر,N0393,Abo Bakr,أبو بكر,,,,,2016-09-05,,,new
Syrian Arab Republic,الجمهورية العربية السورية,SY,Al-Hasakeh,الحسكة,SY08,Al-Hasakeh,مركز الحسكة,SY0800,Al-Hasakeh,مركز الحسكة,SY080000,Al-Hasakeh,الحسكة,C4360,<Null>,<Null>,<Null>,Al Zouhour,الزهور,N0399,Al Zouhour,الزهور - الحسكة,,,,,2016-09-05,,,SY0800035
Syrian Arab Republic,الجمهورية العربية السورية,SY,Al-Hasakeh,الحسكة,SY08,Al-Hasakeh,مركز الحسكة,SY0800,Al-Hasakeh,مركز الحسكة,SY080000,Al-Hasakeh,الحسكة,C4360,<Null>,<Null>,<Null>,Salhiyeh,الصالحية,N0379,Salhiyeh,الصالحية - الحسكة,,,,,2016-09-05,,,SY0800021
Syrian Arab Republic,الجمهورية العربية السورية,SY,Al-Hasakeh,الحسكة,SY08,Al-Hasakeh,مركز الحسكة,SY0800,Al-Hasakeh,مركز الحسكة,SY080000,Al-Hasakeh,الحسكة,C4360,<Null>,<Null>,<Null>,Al Mufti,المفتي,N0377,Al Mufti,المفتي,,,,,2016-09-05,,,SY0800022
Syrian Arab Republic,الجمهورية العربية السورية,SY,Deir-ez-Zor,دير الزور,SY09,Deir-ez-Zor,مركز دير الزور,SY0901,Deir-ez-Zor,مركز دير الزور,SY090100,Deir-ez-Zor,دير الزور,C5086,,,,Maysalun,ميسلون,N0428,Maysalun,ميسلون - دير الزور,,,,,2016-09-05,,,SY0900042
Syrian Arab Republic,الجمهورية العربية السورية,SY,Deir-ez-Zor,دير الزور,SY09,Deir-ez-Zor,مركز دير الزور,SY0901,Deir-ez-Zor,مركز دير الزور,SY090100,Deir-ez-Zor,دير الزور,C5086,,,,Hettin,حطين,N0426,Hettin - Deir-ez-Zor,حطين - دير الزور,,,,,2016-09-05,,,SY0900041
Syrian Arab Republic,الجمهورية العربية السورية,SY,Deir-ez-Zor,دير الزور,SY09,Deir-ez-Zor,مركز دير الزور,SY0901,Deir-ez-Zor,مركز دير الزور,SY090100,Deir-ez-Zor,دير الزور,C5086,,,,Hameidiyyeh,الحميدية,N0425,Hameidiyyeh (Deir-ez-Zor),الحميدية - دير الزور,,,,,2016-09-05,,,SY0900033
Syrian Arab Republic,الجمهورية العربية السورية,SY,Deir-ez-Zor,دير الزور,SY09,Deir-ez-Zor,مركز دير الزور,SY0901,Deir-ez-Zor,مركز دير الزور,SY090100,Deir-ez-Zor,دير الزور,C5086,,,,Shuhuda,الشهداء,N0424,Shuhuda,الشهداء - دير الزور,,,,,2016-09-05,,,SY0900014
Syrian Arab Republic,الجمهورية العربية السورية,SY,Deir-ez-Zor,دير الزور,SY09,Deir-ez-Zor,مركز دير الزور,SY0901,Deir-ez-Zor,مركز دير الزور,SY090100,Deir-ez-Zor,دير الزور,C5086,,,,Ba'ajein,البعاجين,N0421,Baajein,البعاجين,,,,,2016-09-05,,,SY0900013
Syrian Arab Republic,الجمهورية العربية السورية,SY,Deir-ez-Zor,دير الزور,SY09,Deir-ez-Zor,مركز دير الزور,SY0901,Deir-ez-Zor,مركز دير الزور,SY090100,Deir-ez-Zor,دير الزور,C5086,,,,Ali Bek wa Abd Al Aziz,علي بك وعبد العزيز,N0423,Ali Bek wa Abd Al Aziz,علي بك وعبد العزيز,,,,,2016-09-05,,,SY0900022
Syrian Arab Republic,الجمهورية العربية السورية,SY,Deir-ez-Zor,دير الزور,SY09,Deir-ez-Zor,مركز دير الزور,SY0901,Deir-ez-Zor,مركز دير الزور,SY090100,Deir-ez-Zor,دير الزور,C5086,,,,Sheikh Yasin,الشيخ ياسين,N0420,Sheikh Yasin,الشيخ ياسين,,,,,2016-09-05,,,SY0900032
Syrian Arab Republic,الجمهورية العربية السورية,SY,Deir-ez-Zor,دير الزور,SY09,Deir-ez-Zor,مركز دير الزور,SY0901,Deir-ez-Zor,مركز دير الزور,SY090100,Deir-ez-Zor,دير الزور,C5086,,,,Abu Abed,أبو عابد,N0422,Abu Abed,أبو عابد,,,,,2016-09-05,,,SY0900031
Syrian Arab Republic,الجمهورية العربية السورية,SY,Deir-ez-Zor,دير الزور,SY09,Deir-ez-Zor,مركز دير الزور,SY0901,Deir-ez-Zor,مركز دير الزور,SY090100,Deir-ez-Zor,دير الزور,C5086,,,,Qosour,القصور,N0419,Qosour (Deir-ez-Zor),القصور - دير الزور,,,,,2016-09-05,,,SY0900011
Syrian Arab Republic,الجمهورية العربية السورية,SY,Deir-ez-Zor,دير الزور,SY09,Deir-ez-Zor,مركز دير الزور,SY0901,Deir-ez-Zor,مركز دير الزور,SY090100,Deir-ez-Zor,دير الزور,C5086,,,,Rashdiyeh,الرشدية,N0418,Rashdiyeh,الرشدية,,,,,2016-09-05,,,SY0900012
Syrian Arab Republic,الجمهورية العربية السورية,SY,Deir-ez-Zor,دير الزور,SY09,Deir-ez-Zor,مركز دير الزور,SY0901,Deir-ez-Zor,مركز دير الزور,SY090100,Deir-ez-Zor,دير الزور,C5086,,,,Al Thawra_ Al Jourah,الثورة_ الجورة,N0413,Al Thawra_ Al Jourah,الثورة_ الجورة,,,,,2016-09-05,,,SY0900015
Syrian Arab Republic,الجمهورية العربية السورية,SY,Deir-ez-Zor,دير الزور,SY09,Deir-ez-Zor,مركز دير الزور,SY0901,Deir-ez-Zor,مركز دير الزور,SY090100,Deir-ez-Zor,دير الزور,C5086,,,,Othmaniyeh,العثمانية,N0415,Othmaniyeh,العثمانية,,,,,2016-09-05,,,SY0900023
Syrian Arab Republic,الجمهورية العربية السورية,SY,Deir-ez-Zor,دير الزور,SY09,Deir-ez-Zor,مركز دير الزور,SY0901,Deir-ez-Zor,مركز دير الزور,SY090100,Deir-ez-Zor,دير الزور,C5086,,,,Al Muhajireen,المهاجرين,N0414,Al Muhajireen,المهاجرين,,,,,2016-09-05,,,new
Syrian Arab Republic,الجمهورية العربية السورية,SY,Deir-ez-Zor,دير الزور,SY09,Deir-ez-Zor,مركز دير الزور,SY0901,Deir-ez-Zor,مركز دير الزور,SY090100,Deir-ez-Zor,دير الزور,C5086,,,,Al Bougailia,البغيلية,N0411,Al Bougailia,البغيلية,,,,,2016-09-05,,,new
Syrian Arab Republic,الجمهورية العربية السورية,SY,Deir-ez-Zor,دير الزور,SY09,Deir-ez-Zor,مركز دير الزور,SY0901,Deir-ez-Zor,مركز دير الزور,SY090100,Deir-ez-Zor,دير الزور,C5086,,,,Al Jami' Al Kabeer wa Al Wasat,الجامع الكبير والوسط,N0416,Al Jami Al Kabeer wa Al Wasat,الجامع الكبير والوسط,,,,,2016-09-05,,,SY0900021
Syrian Arab Republic,الجمهورية العربية السورية,SY,Deir-ez-Zor,دير الزور,SY09,Deir-ez-Zor,مركز دير الزور,SY0901,Deir-ez-Zor,مركز دير الزور,SY090100,Deir-ez-Zor,دير الزور,C5086,,,,Tashreen_ Harabesh,تشرين_ هرابش,N0427,Tashreen_ Harabesh,تشرين_ هرابش,,,,,2016-09-05,,,SY0900043
Syrian Arab Republic,الجمهورية العربية السورية,SY,Deir-ez-Zor,دير الزور,SY09,Deir-ez-Zor,مركز دير الزور,SY0901,Deir-ez-Zor,مركز دير الزور,SY090100,Deir-ez-Zor,دير الزور,C5086,,,,Al Jafra,الجفرة,N0429,Al Jafra,الجفرة,,,,,2016-09-05,,,new
Syrian Arab Republic,الجمهورية العربية السورية,SY,Deir-ez-Zor,دير الزور,SY09,Deir-ez-Zor,مركز دير الزور,SY0901,Deir-ez-Zor,مركز دير الزور,SY090100,Deir-ez-Zor,دير الزور,C5086,,,,Hatla,حطلة,N0417,Hatla,حطلة,,,,,2016-09-05,,,new
Syrian Arab Republic,الجمهورية العربية السورية,SY,Deir-ez-Zor,دير الزور,SY09,Deir-ez-Zor,مركز دير الزور,SY0901,Deir-ez-Zor,مركز دير الزور,SY090100,Deir-ez-Zor,دير الزور,C5086,,,,Al Husainia,الحسينية,N0412,Al Husainia,الحسينية,,,,,2016-09-05,,,new
Syrian Arab Republic,الجمهورية العربية السورية,SY,Damascus,دمشق,SY01,Damascus,دمشق,SY0100,Damascus,دمشق,SY010000,Damascus,دمشق,C1001,Midan,الميدان,A013,Tadamon,التضامن,N0092,Tadamon,التضامن,,,,,2016-09-05,,,SY0100097
Syrian Arab Republic,الجمهورية العربية السورية,SY,Damascus,دمشق,SY01,Damascus,دمشق,SY0100,Damascus,دمشق,SY010000,Damascus,دمشق,C1001,Qaboun,القابون,A004,Qaboun,القابون,N0007,Qaboun,القابون,,,,,2016-09-05,,,SY0100142
Syrian Arab Republic,الجمهورية العربية السورية,SY,Damascus,دمشق,SY01,Damascus,دمشق,SY0100,Damascus,دمشق,SY010000,Damascus,دمشق,C1001,Jowbar,جوبر,A008,Joubar Gharbi,جوبر الغربي,N0030,Joubar Gharbi,جوبر الغربي,,,,,2016-09-05,,,SY0100052
Syrian Arab Republic,الجمهورية العربية السورية,SY,Damascus,دمشق,SY01,Damascus,دمشق,SY0100,Damascus,دمشق,SY010000,Damascus,دمشق,C1001,Jowbar,جوبر,A008,Joubar Sharqi,جوبر الشرقي,N0025,Joubar Sharqi,جوبر الشرقي,,,,,2016-09-05,,,SY0100053
Syrian Arab Republic,الجمهورية العربية السورية,SY,Ar-Raqqa,الرقة,SY11,Ar-Raqqa,مركز الرقة,SY1101,Ar-Raqqa,مركز الرقة,SY110100,Ar-Raqqa,الرقة,C5710,<Null>,<Null>,<Null>,Tas-heeh,التصحيح,N0474,Tas-heeh,التصحيح,,,,,2016-09-05,,,SY1100014
Syrian Arab Republic,الجمهورية العربية السورية,SY,Ar-Raqqa,الرقة,SY11,Ar-Raqqa,مركز الرقة,SY1101,Ar-Raqqa,مركز الرقة,SY110100,Ar-Raqqa,الرقة,C5710,<Null>,<Null>,<Null>,Nahda,النهضة,N0468,Nahda (Ar-Raqqa),النهضة - الرقة,,,,,2016-09-05,,,SY1100011
Syrian Arab Republic,الجمهورية العربية السورية,SY,Ar-Raqqa,الرقة,SY11,Ar-Raqqa,مركز الرقة,SY1101,Ar-Raqqa,مركز الرقة,SY110100,Ar-Raqqa,الرقة,C5710,<Null>,<Null>,<Null>,Amin,الأمين,N0472,Amin (Ar-Raqqa),الأمين - الرقة,,,,,2016-09-05,,,SY1100012
Syrian Arab Republic,الجمهورية العربية السورية,SY,Ar-Raqqa,الرقة,SY11,Ar-Raqqa,مركز الرقة,SY1101,Ar-Raqqa,مركز الرقة,SY110100,Ar-Raqqa,الرقة,C5710,<Null>,<Null>,<Null>,Furat,الفرات,N0481,Furat,الفرات,,,,,2016-09-05,,,SY1100013
Syrian Arab Republic,الجمهورية العربية السورية,SY,Ar-Raqqa,الرقة,SY11,Ar-Raqqa,مركز الرقة,SY1101,Ar-Raqqa,مركز الرقة,SY110100,Ar-Raqqa,الرقة,C5710,<Null>,<Null>,<Null>,Wihdeh,الوحدة,N0463,Wihdeh (Ar-Raqqa),الوحدة - الرقة,,,,,2016-09-05,,,SY1100022
Syrian Arab Republic,الجمهورية العربية السورية,SY,Ar-Raqqa,الرقة,SY11,Ar-Raqqa,مركز الرقة,SY1101,Ar-Raqqa,مركز الرقة,SY110100,Ar-Raqqa,الرقة,C5710,<Null>,<Null>,<Null>,Hurriyeh,الحرية,N0462,Hurriyeh (Ar-Raqqa),الحرية - الرقة,,,,,2016-09-05,,,SY1100023
Syrian Arab Republic,الجمهورية العربية السورية,SY,Ar-Raqqa,الرقة,SY11,Ar-Raqqa,مركز الرقة,SY1101,Ar-Raqqa,مركز الرقة,SY110100,Ar-Raqqa,الرقة,C5710,<Null>,<Null>,<Null>,Andalus,الأندلس,N0460,Andalus (Ar-Raqqa),الأندلس - الرقة,,,,,2016-09-05,,,SY1100021
Syrian Arab Republic,الجمهورية العربية السورية,SY,Ar-Raqqa,الرقة,SY11,Ar-Raqqa,مركز الرقة,SY1101,Ar-Raqqa,مركز الرقة,SY110100,Ar-Raqqa,الرقة,C5710,<Null>,<Null>,<Null>,Tishrine,تشرين,N0464,Tishrine (Ar-Raqqa),تشرين - الرقة,,,,,2016-09-05,,,SY1100033
Syrian Arab Republic,الجمهورية العربية السورية,SY,Ar-Raqqa,الرقة,SY11,Ar-Raqqa,مركز الرقة,SY1101,Ar-Raqqa,مركز الرقة,SY110100,Ar-Raqqa,الرقة,C5710,<Null>,<Null>,<Null>,Salhiyeh,الصالحية,N0467,Salhiyeh (Ar-Raqqa),الصالحية - الرقة,,,,,2016-09-05,,,SY1100031
Syrian Arab Republic,الجمهورية العربية السورية,SY,Ar-Raqqa,الرقة,SY11,Ar-Raqqa,مركز الرقة,SY1101,Ar-Raqqa,مركز الرقة,SY110100,Ar-Raqqa,الرقة,C5710,<Null>,<Null>,<Null>,Baath,البعث,N0459,Baath (Ar-Raqqa),البعث - الرقة,,,,,2016-09-05,,,SY1100034
Syrian Arab Republic,الجمهورية العربية السورية,SY,Ar-Raqqa,الرقة,SY11,Ar-Raqqa,مركز الرقة,SY1101,Ar-Raqqa,مركز الرقة,SY110100,Ar-Raqqa,الرقة,C5710,<Null>,<Null>,<Null>,Al- Thawrah,الثورة,N0461,Al- Thawrah (Ar-Raqqa),الثورة - الرقة,,,,,2016-09-05,,,SY1100032
Syrian Arab Republic,الجمهورية العربية السورية,SY,Ar-Raqqa,الرقة,SY11,Ar-Raqqa,مركز الرقة,SY1101,Ar-Raqqa,مركز الرقة,SY110100,Ar-Raqqa,الرقة,C5710,<Null>,<Null>,<Null>,Ma'amoun,المأمون,N0478,Maamoun,المأمون,,,,,2016-09-05,,,SY1100043
Syrian Arab Republic,الجمهورية العربية السورية,SY,Ar-Raqqa,الرقة,SY11,Ar-Raqqa,مركز الرقة,SY1101,Ar-Raqqa,مركز الرقة,SY110100,Ar-Raqqa,الرقة,C5710,<Null>,<Null>,<Null>,Batani,البتاني,N0471,Batani,البتاني,,,,,2016-09-05,,,SY1100045
Syrian Arab Republic,الجمهورية العربية السورية,SY,Ar-Raqqa,الرقة,SY11,Ar-Raqqa,مركز الرقة,SY1101,Ar-Raqqa,مركز الرقة,SY110100,Ar-Raqqa,الرقة,C5710,<Null>,<Null>,<Null>,Ammar Ibn Yaser,عمار بن ياسر,N0477,Ammar Ibn Yaser,عمار بن ياسر,,,,,2016-09-05,,,SY1100044
Syrian Arab Republic,الجمهورية العربية السورية,SY,Ar-Raqqa,الرقة,SY11,Ar-Raqqa,مركز الرقة,SY1101,Ar-Raqqa,مركز الرقة,SY110100,Ar-Raqqa,الرقة,C5710,<Null>,<Null>,<Null>,Mahdi,المهدي,N0470,Mahdi,المهدي,,,,,2016-09-05,,,SY1100042
Syrian Arab Republic,الجمهورية العربية السورية,SY,Ar-Raqqa,الرقة,SY11,Ar-Raqqa,مركز الرقة,SY1101,Ar-Raqqa,مركز الرقة,SY110100,Ar-Raqqa,الرقة,C5710,<Null>,<Null>,<Null>,Hisham Ibn Abd Al Malek,هشام بن عبد الملك,N0479,Hisham Ibn Abd Al Malek,هشام بن عبد الملك,,,,,2016-09-05,,,SY1100053
Syrian Arab Republic,الجمهورية العربية السورية,SY,Ar-Raqqa,الرقة,SY11,Ar-Raqqa,مركز الرقة,SY1101,Ar-Raqqa,مركز الرقة,SY110100,Ar-Raqqa,الرقة,C5710,<Null>,<Null>,<Null>,Rafqa,الرافقة,N0476,Rafqa,الرافقة,,,,,2016-09-05,,,SY1100051
Syrian Arab Republic,الجمهورية العربية السورية,SY,Ar-Raqqa,الرقة,SY11,Ar-Raqqa,مركز الرقة,SY1101,Ar-Raqqa,مركز الرقة,SY110100,Ar-Raqqa,الرقة,C5710,<Null>,<Null>,<Null>,Mansour,المنصور,N0469,Mansour,المنصور,,,,,2016-09-05,,,SY1100041
Syrian Arab Republic,الجمهورية العربية السورية,SY,Ar-Raqqa,الرقة,SY11,Ar-Raqqa,مركز الرقة,SY1101,Ar-Raqqa,مركز الرقة,SY110100,Ar-Raqqa,الرقة,C5710,<Null>,<Null>,<Null>,Rashidiyeh,الرشيد,N0475,Rashidiyeh,الرشيد,,,,,2016-09-05,,,SY1100052
Syrian Arab Republic,الجمهورية العربية السورية,SY,Ar-Raqqa,الرقة,SY11,Ar-Raqqa,مركز الرقة,SY1101,Ar-Raqqa,مركز الرقة,SY110100,Ar-Raqqa,الرقة,C5710,<Null>,<Null>,<Null>,Hettin,حطين,N0466,Hettin (Ar-Raqqa),حطين - الرقة,,,,,2016-09-05,,,SY1100061
Syrian Arab Republic,الجمهورية العربية السورية,SY,Ar-Raqqa,الرقة,SY11,Ar-Raqqa,مركز الرقة,SY1101,Ar-Raqqa,مركز الرقة,SY110100,Ar-Raqqa,الرقة,C5710,<Null>,<Null>,<Null>,Qadessiyeh,القادسية,N0473,Qadessiyeh (Ar-Raqqa),القادسية - الرقة,,,,,2016-09-05,,,SY1100062
Syrian Arab Republic,الجمهورية العربية السورية,SY,Ar-Raqqa,الرقة,SY11,Ar-Raqqa,مركز الرقة,SY1101,Ar-Raqqa,مركز الرقة,SY110100,Ar-Raqqa,الرقة,C5710,<Null>,<Null>,<Null>,Yarmuk,اليرموك,N0480,Yarmuk (Ar-Raqqa),اليرموك - الرقة,,,,,2016-09-05,,,SY1100063
Syrian Arab Republic,الجمهورية العربية السورية,SY,Ar-Raqqa,الرقة,SY11,Ar-Raqqa,مركز الرقة,SY1101,Ar-Raqqa,مركز الرقة,SY110100,Ar-Raqqa,الرقة,C5710,<Null>,<Null>,<Null>,Ad Dari'yeh,الدرعية,N0465,Ad Dariyeh,الدرعية,,,,,2016-09-05,,,SY1100064
Syrian Arab Republic,الجمهورية العربية السورية,SY,As-Sweida,السويداء,SY13,As-Sweida,مركز السويداء,SY1300,As-Sweida,مركز السويداء,SY130000,As-Sweida,السويداء,C6147,<Null>,<Null>,<Null>,Hurriyeh,الحرية,N0524,Hurriyeh (As-Sweida),الحرية - السويداء,,,,,2016-09-05,,,SY1300012
